{"type":"FeatureCollection", "features": [
{"type":"Feature","geometry":{"type":"Polygon","coordinates":[[[23.8114,61.2307],[23.7371,61.259],[23.5421,61.2053],[23.7568,61.0574],[23.9583,61.1019],[23.8114,61.2307]]]},"properties":{"mncplty":"Akaa"}},
{"type":"Feature","geometry":{"type":"Polygon","coordinates":[[[24.359,63.1164],[24.1708,63.148],[23.7156,63.1119],[23.5008,62.979],[23.5195,62.9196],[23.847,62.7626],[23.9316,62.7509],[24.0395,62.7365],[24.0289,62.9719],[24.3009,62.9884],[24.359,63.1164]]]},"properties":{"mncplty":"Alajärvi"}},
{"type":"Feature","geometry":{"type":"Polygon","coordinates":[[[24.5821,64.1865],[24.2877,64.3001],[24.1371,64.1914],[24.3463,64.0415],[24.5821,64.1865]]]},"properties":{"mncplty":"Alavieska"}},
{"type":"Feature","geometry":{"type":"Polygon","coordinates":[[[23.847,62.7626],[23.5481,62.6512],[23.2713,62.7357],[23.1612,62.6555],[23.3378,62.4251],[23.6637,62.4086],[23.8352,62.4943],[23.9936,62.5791],[23.9316,62.7509],[23.847,62.7626]]]},"properties":{"mncplty":"Alavus"}},
{"type":"Feature","geometry":{"type":"Polygon","coordinates":[[[25.8075,61.3134],[25.5452,61.3292],[25.2028,61.2409],[25.2399,61.1146],[25.7835,61.0963],[25.8581,61.1027],[25.8075,61.3134]]]},"properties":{"mncplty":"Asikkala"}},
{"type":"Feature","geometry":{"type":"Polygon","coordinates":[[[25.6596,60.6139],[25.5162,60.5799],[25.4155,60.5415],[25.4315,60.4829],[25.8232,60.551],[25.6596,60.6139]]]},"properties":{"mncplty":"Askola"}},
{"type":"Feature","geometry":{"type":"Polygon","coordinates":[[[22.6821,60.6396],[22.415,60.7373],[22.4457,60.6409],[22.5362,60.5666],[22.6821,60.6396]]]},"properties":{"mncplty":"Aura"}},
{"type":"Feature","geometry":{"type":"Polygon","coordinates":[[[21.1259,60.483],[21.0356,60.5564],[21.0486,60.461],[21.1259,60.483]]]},"properties":{"mncplty":"Brändö"}},
{"type":"Feature","geometry":{"type":"Polygon","coordinates":[[[19.6217,60.2976],[19.4728,60.2357],[19.6632,60.1731],[19.6217,60.2976]]]},"properties":{"mncplty":"Eckerö"}},
{"type":"Feature","geometry":{"type":"Polygon","coordinates":[[[28.9321,62.2612],[28.6528,62.2313],[28.5975,62.1496],[28.789,62.0197],[29.0873,62.0309],[28.9321,62.2612]]]},"properties":{"mncplty":"Enonkoski"}},
{"type":"Feature","geometry":{"type":"Polygon","coordinates":[[[24.9032,68.5546],[23.8715,68.8365],[23.6735,68.7055],[23.1676,68.6285],[22.3745,68.7167],[21.6271,69.2766],[21.2788,69.3119],[21.0082,69.2217],[21.0575,69.0363],[20.7173,69.1198],[20.5523,69.0601],[22.0419,68.4802],[22.8371,68.3852],[23.2867,68.1543],[24.1068,68.1389],[24.4456,68.3206],[25.0272,68.3953],[24.9032,68.5546]]]},"properties":{"mncplty":"Enontekiö"}},
{"type":"Feature","geometry":{"type":"Polygon","coordinates":[[[24.7493,60.3418],[24.6277,60.3592],[24.5156,60.2813],[24.6268,60.1493],[24.8346,60.1605],[24.8314,60.2541],[24.7493,60.3418]],[[24.7918,60.2212],[24.6934,60.1893],[24.6611,60.2303],[24.7918,60.2212]]]},"properties":{"mncplty":"Espoo"}},
{"type":"Feature","geometry":{"type":"Polygon","coordinates":[[[22.0212,61.2944],[21.8762,61.2967],[21.8675,61.1457],[22.0707,61.0424],[21.8441,61.0094],[22.1285,60.9042],[22.1603,60.872],[22.2636,60.9269],[22.1762,61.2519],[22.1299,61.2651],[22.0212,61.2944]]]},"properties":{"mncplty":"Eura"}},
{"type":"Feature","geometry":{"type":"Polygon","coordinates":[[[21.8762,61.2967],[21.7132,61.3899],[21.5272,61.4424],[21.4427,61.2325],[21.8675,61.1457],[21.8762,61.2967]]]},"properties":{"mncplty":"Eurajoki"}},
{"type":"Feature","geometry":{"type":"Polygon","coordinates":[[[23.697,63.3803],[23.3929,63.498],[23.207,63.399],[23.4435,63.2818],[23.697,63.3803]]]},"properties":{"mncplty":"Evijärvi"}},
{"type":"Feature","geometry":{"type":"Polygon","coordinates":[[[20.024,60.2306],[19.9461,60.3763],[19.8846,60.3297],[19.8107,60.3249],[19.8412,60.1877],[19.9995,60.2023],[20.0251,60.2186],[20.024,60.2306]]]},"properties":{"mncplty":"Finström"}},
{"type":"Feature","geometry":{"type":"Polygon","coordinates":[[[23.8394,60.9397],[23.7123,61.009],[23.4741,60.9635],[23.5007,60.9476],[23.5505,60.7889],[23.8394,60.9397]]]},"properties":{"mncplty":"Forssa"}},
{"type":"Feature","geometry":{"type":"Polygon","coordinates":[[[20.4521,59.9915],[20.5751,60.052],[20.3187,59.994],[20.4521,59.9915]]]},"properties":{"mncplty":"Föglö"}},
{"type":"Feature","geometry":{"type":"Polygon","coordinates":[[[19.9461,60.3763],[19.9679,60.3955],[19.7929,60.3872],[19.8846,60.3297],[19.9461,60.3763]]]},"properties":{"mncplty":"Geta"}},
{"type":"Feature","geometry":{"type":"Polygon","coordinates":[[[25.3664,63.93],[25.1071,63.7718],[24.9674,63.8006],[24.9556,63.7575],[25.2452,63.6103],[25.348,63.5815],[25.662,63.7998],[25.534,63.9216],[25.3664,63.93]]]},"properties":{"mncplty":"Haapajärvi"}},
{"type":"Feature","geometry":{"type":"Polygon","coordinates":[[[25.534,63.9216],[25.7773,64.1106],[25.4629,64.3626],[25.2002,64.3209],[24.9064,64.1095],[25.0212,64.0679],[25.3664,63.93],[25.534,63.9216]]]},"properties":{"mncplty":"Haapavesi"}},
{"type":"Feature","geometry":{"type":"Polygon","coordinates":[[[24.9321,65.0712],[24.6057,65.0683],[24.6184,64.9714],[24.8401,64.9551],[24.8566,65.0551],[25.0807,65.0533],[24.9321,65.0712]]]},"properties":{"mncplty":"Hailuoto"}},
{"type":"Feature","geometry":{"type":"Polygon","coordinates":[[[24.4669,63.5254],[24.0989,63.5771],[24.0408,63.5215],[24.1646,63.3319],[24.4862,63.3752],[24.4669,63.5254]]]},"properties":{"mncplty":"Halsua"}},
{"type":"Feature","geometry":{"type":"Polygon","coordinates":[[[27.4547,60.6411],[27.4284,60.8426],[26.9221,60.6486],[27.0237,60.5294],[27.3979,60.5082],[27.4547,60.6411]]]},"properties":{"mncplty":"Hamina"}},
{"type":"Feature","geometry":{"type":"Polygon","coordinates":[[[19.6632,60.1731],[19.748,60.1318],[19.8412,60.1877],[19.8107,60.3249],[19.6217,60.2976],[19.6632,60.1731]]]},"properties":{"mncplty":"Hammarland"}},
{"type":"Feature","geometry":{"type":"Polygon","coordinates":[[[26.4832,62.5324],[26.2137,62.5782],[26.2187,62.4911],[26.3159,62.2005],[26.6141,62.2171],[26.6832,62.3077],[26.7091,62.4529],[26.4832,62.5324]]]},"properties":{"mncplty":"Hankasalmi"}},
{"type":"Feature","geometry":{"type":"Polygon","coordinates":[[[23.2746,59.8634],[23.1266,59.9187],[22.908,59.8098],[23.2746,59.8634]]]},"properties":{"mncplty":"Hanko"}},
{"type":"Feature","geometry":{"type":"Polygon","coordinates":[[[22.1299,61.2651],[22.205,61.4074],[22.1661,61.4055],[22.0212,61.2944],[22.1299,61.2651]]]},"properties":{"mncplty":"Harjavalta"}},
{"type":"Feature","geometry":{"type":"Polygon","coordinates":[[[26.315,61.6084],[25.845,61.8014],[25.7712,61.6851],[25.9619,61.5426],[25.87,61.4785],[26.173,61.3929],[26.2648,61.4258],[26.315,61.6084]]]},"properties":{"mncplty":"Hartola"}},
{"type":"Feature","geometry":{"type":"Polygon","coordinates":[[[24.2355,61.1514],[24.0862,60.8574],[24.6244,61.0612],[24.3024,61.2332],[24.2355,61.1514]]]},"properties":{"mncplty":"Hattula"}},
{"type":"Feature","geometry":{"type":"Polygon","coordinates":[[[25.1081,60.8651],[25.0277,60.9278],[24.9804,60.9076],[24.7146,60.7965],[24.8351,60.6663],[25.1125,60.6616],[25.111,60.8186],[25.1081,60.8651]]]},"properties":{"mncplty":"Hausjärvi"}},
{"type":"Feature","geometry":{"type":"Polygon","coordinates":[[[25.8581,61.1027],[26.051,61.101],[26.2345,61.13],[26.5137,61.2743],[26.2648,61.4258],[26.173,61.3929],[25.8075,61.3134],[25.8581,61.1027]]]},"properties":{"mncplty":"Heinola"}},
{"type":"Feature","geometry":{"type":"Polygon","coordinates":[[[28.9321,62.2612],[29.1664,62.3863],[28.944,62.5768],[28.6551,62.657],[28.467,62.5832],[28.315,62.3546],[28.6528,62.2313],[28.9321,62.2612]]]},"properties":{"mncplty":"Heinävesi"}},
{"type":"Feature","geometry":{"type":"Polygon","coordinates":[[[24.8346,60.1605],[25.0782,60.1325],[25.2428,60.2514],[25.1902,60.2857],[24.8314,60.2541],[24.8346,60.1605]]]},"properties":{"mncplty":"Helsinki"}},
{"type":"Feature","geometry":{"type":"Polygon","coordinates":[[[26.8322,61.8503],[26.3891,61.8542],[26.5155,61.6271],[26.9637,61.5034],[26.8322,61.8503]]]},"properties":{"mncplty":"Hirvensalmi"}},
{"type":"Feature","geometry":{"type":"Polygon","coordinates":[[[25.2399,61.1146],[25.0277,60.9278],[25.1081,60.8651],[25.2614,60.9817],[25.4022,60.8544],[25.6575,60.9064],[25.5403,60.9983],[25.7835,61.0963],[25.2399,61.1146]]]},"properties":{"mncplty":"Hollola"}},
{"type":"Feature","geometry":{"type":"Polygon","coordinates":[[[22.9342,61.205],[22.5991,61.302],[22.4803,61.1706],[22.7015,60.9869],[22.8239,61.1014],[22.9685,61.0433],[22.9342,61.205]]]},"properties":{"mncplty":"Huittinen"}},
{"type":"Feature","geometry":{"type":"Polygon","coordinates":[[[23.4741,60.9635],[23.26,61.0186],[23.1954,61.0012],[23.2667,60.8891],[23.2763,60.8822],[23.5007,60.9476],[23.4741,60.9635]]]},"properties":{"mncplty":"Humppila"}},
{"type":"Feature","geometry":{"type":"Polygon","coordinates":[[[29.4595,64.5663],[28.2943,64.8984],[28.056,64.8086],[28.0743,64.6329],[28.8598,64.4934],[29.1633,64.4546],[29.4595,64.5663]]]},"properties":{"mncplty":"Hyrynsalmi"}},
{"type":"Feature","geometry":{"type":"Polygon","coordinates":[[[24.8351,60.6663],[24.6159,60.6676],[24.5773,60.5858],[24.6488,60.5167],[24.9122,60.5556],[25.0453,60.5769],[25.1125,60.6616],[24.8351,60.6663]]]},"properties":{"mncplty":"Hyvinkää"}},
{"type":"Feature","geometry":{"type":"Polygon","coordinates":[[[23.4422,61.5722],[23.5005,61.6979],[23.3354,61.6371],[23.2103,61.7344],[22.8241,61.6751],[23.1938,61.5378],[23.4422,61.5722]]]},"properties":{"mncplty":"Hämeenkyrö"}},
{"type":"Feature","geometry":{"type":"Polygon","coordinates":[[[23.7568,61.0574],[23.8566,60.9715],[24.0632,60.7935],[24.423,60.7712],[24.3987,60.9028],[24.6788,61.0254],[24.9804,60.9076],[25.0277,60.9278],[25.2399,61.1146],[25.2028,61.2409],[24.9139,61.3249],[24.3024,61.2332],[24.6244,61.0612],[24.0862,60.8574],[24.2355,61.1514],[23.9583,61.1019],[23.7568,61.0574]]]},"properties":{"mncplty":"Hämeenlinna"}},
{"type":"Feature","geometry":{"type":"Polygon","coordinates":[[[26.1582,65.7256],[26.1601,65.8223],[25.9392,65.774],[25.4245,65.7426],[25.0992,65.5942],[25.3384,65.4721],[25.2807,65.252],[25.6602,65.2404],[25.7891,65.5503],[26.1556,65.5552],[26.1582,65.7256]]]},"properties":{"mncplty":"Ii"}},
{"type":"Feature","geometry":{"type":"Polygon","coordinates":[[[27.6252,63.5025],[27.261,63.6888],[27.0153,63.6165],[26.8288,63.6668],[26.8246,63.5164],[27.137,63.3212],[27.1829,63.3302],[27.2186,63.4515],[27.6252,63.5025]]]},"properties":{"mncplty":"Iisalmi"}},
{"type":"Feature","geometry":{"type":"Polygon","coordinates":[[[26.051,61.101],[26.1399,60.9072],[26.2084,60.758],[26.3001,60.7492],[26.545,60.8838],[26.2345,61.13],[26.051,61.101]]]},"properties":{"mncplty":"Iitti"}},
{"type":"Feature","geometry":{"type":"Polygon","coordinates":[[[23.2103,61.7344],[23.5939,61.8194],[23.3108,61.9495],[22.7387,61.9106],[22.6937,61.7378],[22.691,61.7025],[22.8241,61.6751],[23.2103,61.7344]]]},"properties":{"mncplty":"Ikaalinen"}},
{"type":"Feature","geometry":{"type":"Polygon","coordinates":[[[22.8577,62.6342],[22.7369,62.8713],[22.3026,62.7951],[22.2739,62.7911],[22.2007,62.7516],[22.6653,62.5999],[22.8577,62.6342]]]},"properties":{"mncplty":"Ilmajoki"}},
{"type":"Feature","geometry":{"type":"Polygon","coordinates":[[[31.0935,62.4166],[31.5867,62.9087],[31.2382,63.1951],[30.3614,62.9984],[30.5116,62.6968],[31.0005,62.4592],[30.9555,62.385],[31.0935,62.4166]]]},"properties":{"mncplty":"Ilomantsi"}},
{"type":"Feature","geometry":{"type":"Polygon","coordinates":[[[29.022,61.1885],[28.9189,61.2757],[28.7017,61.2316],[28.7766,61.0793],[29.022,61.1885]]]},"properties":{"mncplty":"Imatra"}},
{"type":"Feature","geometry":{"type":"Polygon","coordinates":[[[25.0272,68.3953],[25.9756,68.2776],[28.479,68.4662],[28.8008,68.8693],[28.4158,68.9155],[28.9293,69.0519],[28.8315,69.2244],[29.3365,69.4783],[29.1339,69.6953],[28.3305,69.8492],[27.8868,69.5653],[25.7384,69.1476],[25.6535,68.907],[25.2466,68.8427],[24.9032,68.5546],[25.0272,68.3953]]]},"properties":{"mncplty":"Inari"}},
{"type":"Feature","geometry":{"type":"Polygon","coordinates":[[[24.0458,60.1501],[23.9424,60.1295],[23.8208,59.9871],[24.2761,60.0597],[24.0458,60.1501]]]},"properties":{"mncplty":"Ingå"}},
{"type":"Feature","geometry":{"type":"Polygon","coordinates":[[[21.939,62.2604],[21.7675,62.2227],[21.6478,62.0196],[21.7494,62.0159],[21.9747,61.9798],[22.1987,62.1033],[21.939,62.2604]]]},"properties":{"mncplty":"Isojoki"}},
{"type":"Feature","geometry":{"type":"Polygon","coordinates":[[[22.3026,62.7951],[22.6762,63.0839],[22.6317,63.1019],[22.2423,63.0637],[22.144,62.9631],[22.2739,62.7911],[22.3026,62.7951]]]},"properties":{"mncplty":"Isokyrö"}},
{"type":"Feature","geometry":{"type":"Polygon","coordinates":[[[22.7862,63.6951],[22.6581,63.721],[22.4925,63.6234],[22.5394,63.6108],[22.7862,63.6951]]]},"properties":{"mncplty":"Jakobstad"}},
{"type":"Feature","geometry":{"type":"Polygon","coordinates":[[[24.9804,60.9076],[24.6788,61.0254],[24.3987,60.9028],[24.423,60.7712],[24.6909,60.7515],[24.7146,60.7965],[24.9804,60.9076]]]},"properties":{"mncplty":"Janakkala"}},
{"type":"Feature","geometry":{"type":"Polygon","coordinates":[[[30.3614,62.9984],[29.96,63.0195],[30.288,62.6326],[29.9431,62.5662],[29.6372,62.6545],[29.7632,62.4074],[29.9496,62.3703],[30.57,62.3726],[30.7892,62.2508],[31.0935,62.4166],[30.9555,62.385],[31.0005,62.4592],[30.5116,62.6968],[30.3614,62.9984]]]},"properties":{"mncplty":"Joensuu"}},
{"type":"Feature","geometry":{"type":"Polygon","coordinates":[[[23.5007,60.9476],[23.2763,60.8822],[23.4086,60.7398],[23.5021,60.744],[23.5505,60.7889],[23.5007,60.9476]]]},"properties":{"mncplty":"Jokioinen"}},
{"type":"Feature","geometry":{"type":"Polygon","coordinates":[[[19.8412,60.1877],[19.748,60.1318],[19.887,60.0888],[19.9996,60.0972],[20.0174,60.1034],[19.9995,60.2023],[19.8412,60.1877]]]},"properties":{"mncplty":"Jomala"}},
{"type":"Feature","geometry":{"type":"Polygon","coordinates":[[[27.758,62.3674],[27.6919,62.3748],[27.5316,62.2681],[27.6531,62.0278],[27.8718,62.0065],[28.0489,62.2353],[27.758,62.3674]]]},"properties":{"mncplty":"Joroinen"}},
{"type":"Feature","geometry":{"type":"Polygon","coordinates":[[[26.315,61.6084],[26.5155,61.6271],[26.3891,61.8542],[26.3317,62.0368],[25.9514,61.9975],[25.8501,61.8906],[25.845,61.8014],[26.315,61.6084]]]},"properties":{"mncplty":"Joutsa"}},
{"type":"Feature","geometry":{"type":"Polygon","coordinates":[[[29.4673,63.3479],[29.1068,63.4497],[28.7595,63.3878],[28.6108,63.2038],[28.7624,63.1367],[29.0648,62.9866],[29.4161,63.107],[29.6057,62.9685],[29.7872,63.0515],[29.4673,63.3479]]]},"properties":{"mncplty":"Juuka"}},
{"type":"Feature","geometry":{"type":"Polygon","coordinates":[[[24.5246,61.9093],[24.4386,61.9106],[24.2274,61.8248],[24.5554,61.7155],[24.6667,61.863],[24.5246,61.9093]]]},"properties":{"mncplty":"Juupajoki"}},
{"type":"Feature","geometry":{"type":"Polygon","coordinates":[[[27.6531,62.0278],[27.3925,62.0059],[27.9004,61.5456],[28.1761,61.7169],[28.0888,61.8853],[28.2217,61.9376],[27.8718,62.0065],[27.6531,62.0278]]]},"properties":{"mncplty":"Juva"}},
{"type":"Feature","geometry":{"type":"Polygon","coordinates":[[[25.9514,61.9975],[25.768,62.0636],[25.4797,62.0861],[25.4939,62.233],[25.7952,62.0944],[25.9609,62.0747],[26.0486,62.1813],[26.051,62.2676],[25.5791,62.4287],[25.2854,62.3892],[25.4699,62.3245],[25.2852,62.1524],[25.3356,61.9508],[25.5964,61.8395],[25.8501,61.8906],[25.9514,61.9975]]]},"properties":{"mncplty":"Jyväskylä"}},
{"type":"Feature","geometry":{"type":"Polygon","coordinates":[[[22.7387,61.9106],[22.6466,61.9521],[22.5164,61.8977],[22.6937,61.7378],[22.7387,61.9106]]]},"properties":{"mncplty":"Jämijärvi"}},
{"type":"Feature","geometry":{"type":"Polygon","coordinates":[[[24.6667,61.863],[24.812,61.66],[24.9603,61.6307],[25.0147,61.7752],[25.3728,61.7131],[25.5352,61.7796],[25.5964,61.8395],[25.3356,61.9508],[25.2852,62.1524],[24.9688,62.2108],[24.7309,62.0232],[24.5246,61.9093],[24.6667,61.863]]]},"properties":{"mncplty":"Jämsä"}},
{"type":"Feature","geometry":{"type":"Polygon","coordinates":[[[25.1693,60.5062],[25.1281,60.5285],[25.0445,60.4476],[25.1807,60.4609],[25.1693,60.5062]]]},"properties":{"mncplty":"Järvenpää"}},
{"type":"Feature","geometry":{"type":"Polygon","coordinates":[[[22.6075,60.3818],[22.5788,60.4951],[22.3653,60.4783],[22.3063,60.3675],[22.5621,60.3571],[22.6075,60.3818]]]},"properties":{"mncplty":"Kaarina"}},
{"type":"Feature","geometry":{"type":"Polygon","coordinates":[[[28.7624,63.1367],[28.4715,63.1074],[28.3859,62.9639],[28.7444,62.8124],[29.0976,62.8456],[29.0648,62.9866],[28.7624,63.1367]]]},"properties":{"mncplty":"Kaavi"}},
{"type":"Feature","geometry":{"type":"Polygon","coordinates":[[[28.1328,64.3171],[27.1878,64.3103],[26.7675,64.2652],[26.7709,64.216],[26.8704,64.037],[27.1193,63.9908],[27.9263,63.8446],[28.0654,63.9035],[27.7968,64.1624],[28.1328,64.3171]]]},"properties":{"mncplty":"Kajaani"}},
{"type":"Feature","geometry":{"type":"Polygon","coordinates":[[[24.2877,64.3001],[24.2646,64.3121],[23.9845,64.377],[23.58,64.0612],[23.7461,63.9737],[23.9704,64.0953],[24.1271,63.9828],[24.3066,64.0221],[24.3463,64.0415],[24.1371,64.1914],[24.2877,64.3001]]]},"properties":{"mncplty":"Kalajoki"}},
{"type":"Feature","geometry":{"type":"Polygon","coordinates":[[[24.8283,61.5534],[24.6256,61.5137],[24.1185,61.6272],[23.8902,61.4274],[23.9578,61.3313],[24.0791,61.3305],[24.282,61.4381],[24.86,61.476],[24.9705,61.4507],[24.8283,61.5534]]]},"properties":{"mncplty":"Kangasala"}},
{"type":"Feature","geometry":{"type":"Polygon","coordinates":[[[26.3159,62.2005],[26.3317,62.0368],[26.3891,61.8542],[26.8322,61.8503],[27.1266,61.9637],[26.8527,62.1289],[26.6832,62.3077],[26.6141,62.2171],[26.3159,62.2005]]]},"properties":{"mncplty":"Kangasniemi"}},
{"type":"Feature","geometry":{"type":"Polygon","coordinates":[[[22.6937,61.7378],[22.5164,61.8977],[22.6466,61.9521],[22.5226,61.9981],[22.3737,62.1424],[22.1987,62.1033],[21.9747,61.9798],[22.1754,61.8788],[22.0875,61.7827],[22.3827,61.7094],[22.6472,61.6965],[22.691,61.7025],[22.6937,61.7378]]]},"properties":{"mncplty":"Kankaanpää"}},
{"type":"Feature","geometry":{"type":"Polygon","coordinates":[[[25.7077,62.9207],[25.3751,63.0993],[25.0525,63.0079],[25.3004,62.8185],[25.4673,62.9085],[25.5711,62.8593],[25.7077,62.9207]]]},"properties":{"mncplty":"Kannonkoski"}},
{"type":"Feature","geometry":{"type":"Polygon","coordinates":[[[23.7461,63.9737],[23.9852,63.7563],[24.2475,63.8769],[24.1271,63.9828],[23.9704,64.0953],[23.7461,63.9737]]]},"properties":{"mncplty":"Kannus"}},
{"type":"Feature","geometry":{"type":"Polygon","coordinates":[[[21.939,62.2604],[21.8756,62.3619],[21.5541,62.4243],[21.7675,62.2227],[21.939,62.2604]]]},"properties":{"mncplty":"Karijoki"}},
{"type":"Feature","geometry":{"type":"Polygon","coordinates":[[[24.4237,60.5525],[24.0467,60.6423],[23.9713,60.6382],[24.1713,60.4847],[24.4237,60.5525]]]},"properties":{"mncplty":"Karkkila"}},
{"type":"Feature","geometry":{"type":"Polygon","coordinates":[[[25.0525,63.0079],[24.8817,63.0457],[24.3482,62.9637],[24.5042,62.7104],[24.9002,62.7432],[25.0366,62.8623],[25.3004,62.8185],[25.0525,63.0079]]]},"properties":{"mncplty":"Karstula"}},
{"type":"Feature","geometry":{"type":"Polygon","coordinates":[[[22.5226,61.9981],[22.7802,62.0607],[22.8313,62.2709],[22.6343,62.3009],[22.3737,62.1424],[22.5226,61.9981]]]},"properties":{"mncplty":"Karvia"}},
{"type":"Feature","geometry":{"type":"Polygon","coordinates":[[[21.2837,62.3629],[21.2531,62.4262],[21.1658,62.3777],[21.2837,62.3629]]]},"properties":{"mncplty":"Kaskinen"}},
{"type":"Feature","geometry":{"type":"Polygon","coordinates":[[[22.1987,62.1033],[22.3737,62.1424],[22.6343,62.3009],[22.5814,62.4677],[22.0415,62.5414],[21.8756,62.3619],[21.939,62.2604],[22.1987,62.1033]]]},"properties":{"mncplty":"Kauhajoki"}},
{"type":"Feature","geometry":{"type":"Polygon","coordinates":[[[23.207,63.399],[22.9716,63.3723],[22.6166,63.282],[22.6317,63.1019],[22.6762,63.0839],[22.7841,63.0379],[23.4548,63.0633],[23.3146,63.2008],[23.4435,63.2818],[23.207,63.399]]]},"properties":{"mncplty":"Kauhava"}},
{"type":"Feature","geometry":{"type":"Polygon","coordinates":[[[24.7918,60.2212],[24.6611,60.2303],[24.6934,60.1893],[24.7918,60.2212]]]},"properties":{"mncplty":"Kauniainen"}},
{"type":"Feature","geometry":{"type":"Polygon","coordinates":[[[24.0989,63.5771],[23.7441,63.6754],[23.4224,63.616],[23.6578,63.483],[24.0408,63.5215],[24.0989,63.5771]]]},"properties":{"mncplty":"Kaustinen"}},
{"type":"Feature","geometry":{"type":"Polygon","coordinates":[[[26.6068,63.0421],[26.1767,63.4389],[26.1419,63.2747],[26.3343,63.0351],[26.5436,62.9988],[26.6068,63.0421]]]},"properties":{"mncplty":"Keitele"}},
{"type":"Feature","geometry":{"type":"Polygon","coordinates":[[[24.7474,65.695],[24.4362,65.7672],[24.6651,65.6516],[24.7474,65.695]]]},"properties":{"mncplty":"Kemi"}},
{"type":"Feature","geometry":{"type":"Polygon","coordinates":[[[27.8816,66.8859],[27.5846,67.0072],[26.518,66.9429],[26.6975,66.5746],[27.2498,66.332],[27.4147,66.2891],[27.596,66.4009],[28.1386,66.4319],[28.1561,66.6977],[27.8816,66.8859]]]},"properties":{"mncplty":"Kemijärvi"}},
{"type":"Feature","geometry":{"type":"Polygon","coordinates":[[[24.7474,65.695],[25.2257,65.9615],[24.5096,66.0304],[24.4362,65.7672],[24.7474,65.695]]]},"properties":{"mncplty":"Keminmaa"}},
{"type":"Feature","geometry":{"type":"Polygon","coordinates":[[[25.7283,64.9045],[25.4451,64.8924],[25.5553,64.8489],[25.7283,64.9045]]]},"properties":{"mncplty":"Kempele"}},
{"type":"Feature","geometry":{"type":"Polygon","coordinates":[[[25.1728,60.3566],[25.1768,60.4411],[25.056,60.3759],[25.1728,60.3566]]]},"properties":{"mncplty":"Kerava"}},
{"type":"Feature","geometry":{"type":"Polygon","coordinates":[[[24.9688,62.2108],[25.069,62.3321],[24.7417,62.3274],[24.5306,62.5284],[24.013,62.3633],[24.2113,62.2523],[24.5602,62.1857],[24.7309,62.0232],[24.9688,62.2108]]]},"properties":{"mncplty":"Keuruu"}},
{"type":"Feature","geometry":{"type":"Polygon","coordinates":[[[23.424,62.1581],[23.2178,62.3342],[23.1445,62.3192],[22.9944,62.2889],[23.1411,62.0827],[23.2952,62.0829],[23.424,62.1581]]]},"properties":{"mncplty":"Kihniö"}},
{"type":"Feature","geometry":{"type":"Polygon","coordinates":[[[22.8766,60.2371],[22.4634,60.2148],[22.3895,59.9987],[22.768,60.0203],[22.8766,60.2371]]]},"properties":{"mncplty":"Kimitoön"}},
{"type":"Feature","geometry":{"type":"Polygon","coordinates":[[[25.3335,63.2843],[25.0819,63.4672],[25.0363,63.4581],[24.7729,63.3587],[24.8036,63.2759],[25.3093,63.2787],[25.3335,63.2843]]]},"properties":{"mncplty":"Kinnula"}},
{"type":"Feature","geometry":{"type":"Polygon","coordinates":[[[24.5156,60.2813],[24.3425,60.2462],[24.3615,60.0794],[24.4386,59.9729],[24.6268,60.1493],[24.5156,60.2813]]]},"properties":{"mncplty":"Kirkkonummi"}},
{"type":"Feature","geometry":{"type":"Polygon","coordinates":[[[30.4831,62.0638],[30.0051,62.2443],[29.9514,62.1461],[29.4301,62.2365],[29.6968,61.8644],[29.5593,61.7221],[30.144,61.8522],[30.4831,62.0638]]]},"properties":{"mncplty":"Kitee"}},
{"type":"Feature","geometry":{"type":"Polygon","coordinates":[[[24.1068,68.1389],[24.2729,67.6269],[24.7368,67.1519],[25.35,67.1513],[25.7607,67.4342],[25.9756,68.2776],[25.0272,68.3953],[24.4456,68.3206],[24.1068,68.1389]]]},"properties":{"mncplty":"Kittilä"}},
{"type":"Feature","geometry":{"type":"Polygon","coordinates":[[[26.8288,63.6668],[26.8356,63.8154],[26.5594,63.9637],[26.2434,63.841],[26.1654,63.4809],[26.6935,63.4435],[26.8246,63.5164],[26.8288,63.6668]]]},"properties":{"mncplty":"Kiuruvesi"}},
{"type":"Feature","geometry":{"type":"Polygon","coordinates":[[[25.3751,63.0993],[25.3093,63.2787],[24.8036,63.2759],[24.7729,63.1334],[24.8817,63.0457],[25.0525,63.0079],[25.3751,63.0993]]]},"properties":{"mncplty":"Kivijärvi"}},
{"type":"Feature","geometry":{"type":"Polygon","coordinates":[[[22.1762,61.2519],[22.4803,61.1706],[22.5991,61.302],[22.4342,61.4889],[22.205,61.4074],[22.1299,61.2651],[22.1762,61.2519]]]},"properties":{"mncplty":"Kokemäki"}},
{"type":"Feature","geometry":{"type":"Polygon","coordinates":[[[24.4669,63.5254],[24.4085,63.566],[23.9852,63.7563],[23.7461,63.9737],[23.58,64.0612],[23.3645,64.0689],[23.3696,63.9206],[22.808,63.89],[22.9215,63.7751],[23.2484,63.7169],[23.4776,63.7791],[23.7441,63.6754],[24.0989,63.5771],[24.4669,63.5254]]]},"properties":{"mncplty":"Kokkola"}},
{"type":"Feature","geometry":{"type":"Polygon","coordinates":[[[24.2729,67.6269],[23.5405,67.461],[23.7646,67.4282],[23.5463,67.2252],[23.7844,66.9969],[24.8702,66.9379],[24.7368,67.1519],[24.2729,67.6269]]]},"properties":{"mncplty":"Kolari"}},
{"type":"Feature","geometry":{"type":"Polygon","coordinates":[[[26.4832,62.5324],[26.5984,62.6108],[26.4466,62.7892],[26.1518,62.8468],[26.0248,62.8254],[26.2338,62.6784],[26.036,62.5836],[26.2187,62.4911],[26.2137,62.5782],[26.4832,62.5324]]]},"properties":{"mncplty":"Konnevesi"}},
{"type":"Feature","geometry":{"type":"Polygon","coordinates":[[[29.96,63.0195],[29.7872,63.0515],[29.6057,62.9685],[29.7233,62.847],[29.5848,62.7215],[29.6372,62.6545],[29.9431,62.5662],[30.288,62.6326],[29.96,63.0195]]]},"properties":{"mncplty":"Kontiolahti"}},
{"type":"Feature","geometry":{"type":"MultiPolygon","coordinates":[[[[21.9585,63.2627],[21.569,63.2759],[21.5177,63.171],[21.8289,63.0617],[21.5631,62.9848],[21.7851,62.894],[21.9121,63.0488],[22.0507,63.137],[21.9585,63.2627]]],[[[21.258,63.2953],[21.0783,63.2766],[21.3105,63.1582],[21.443,63.2301],[21.258,63.2953]]]]},"properties":{"mncplty":"Korsholm"}},
{"type":"Feature","geometry":{"type":"Polygon","coordinates":[[[21.3744,62.7579],[21.3133,62.8819],[21.0924,62.6872],[21.2966,62.669],[21.3744,62.7579]]]},"properties":{"mncplty":"Korsnäs"}},
{"type":"Feature","geometry":{"type":"Polygon","coordinates":[[[23.2078,60.5857],[23.1546,60.7742],[22.9652,60.7109],[23.1007,60.5735],[23.2078,60.5857]]]},"properties":{"mncplty":"Koski Tl"}},
{"type":"Feature","geometry":{"type":"Polygon","coordinates":[[[26.9221,60.6486],[26.7411,60.6563],[26.7539,60.5757],[26.8419,60.4579],[27.0237,60.5294],[26.9221,60.6486]]]},"properties":{"mncplty":"Kotka"}},
{"type":"Feature","geometry":{"type":"Polygon","coordinates":[[[27.4284,60.8426],[27.1361,60.9512],[27.2285,61.0902],[27.2058,61.1625],[26.9121,61.1832],[26.8523,61.2837],[26.6613,61.2069],[26.5137,61.2743],[26.2345,61.13],[26.545,60.8838],[26.3001,60.7492],[26.3471,60.6614],[26.5418,60.575],[26.6828,60.6493],[26.7539,60.5757],[26.7411,60.6563],[26.9221,60.6486],[27.4284,60.8426]]]},"properties":{"mncplty":"Kouvola"}},
{"type":"Feature","geometry":{"type":"Polygon","coordinates":[[[21.7675,62.2227],[21.5541,62.4243],[21.3228,62.3188],[21.332,61.967],[21.6478,62.0196],[21.7675,62.2227]]]},"properties":{"mncplty":"Kristinestad"}},
{"type":"Feature","geometry":{"type":"Polygon","coordinates":[[[23.697,63.3803],[23.6578,63.483],[23.4224,63.616],[23.7441,63.6754],[23.4776,63.7791],[23.2484,63.7169],[22.9215,63.7751],[22.8297,63.7359],[23.3929,63.498],[23.697,63.3803]]]},"properties":{"mncplty":"Kronoby"}},
{"type":"Feature","geometry":{"type":"Polygon","coordinates":[[[28.8598,64.4934],[28.7519,64.3102],[29.211,63.9647],[29.1583,63.8473],[29.6825,63.8789],[29.7757,63.7034],[29.9719,63.7572],[30.2604,63.822],[30.5534,64.1322],[30.4824,64.2623],[30.0449,64.402],[29.9894,64.5876],[29.6223,64.6354],[29.4595,64.5663],[29.1633,64.4546],[28.8598,64.4934]]]},"properties":{"mncplty":"Kuhmo"}},
{"type":"Feature","geometry":{"type":"Polygon","coordinates":[[[24.812,61.66],[24.8283,61.5534],[24.9705,61.4507],[25.4374,61.4869],[25.5013,61.6769],[25.5352,61.7796],[25.3728,61.7131],[25.0147,61.7752],[24.9603,61.6307],[24.812,61.66]]]},"properties":{"mncplty":"Kuhmoinen"}},
{"type":"Feature","geometry":{"type":"Polygon","coordinates":[[[20.8115,60.2291],[20.8042,60.2936],[20.7512,60.272],[20.8115,60.2291]]]},"properties":{"mncplty":"Kumlinge"}},
{"type":"Feature","geometry":{"type":"Polygon","coordinates":[[[27.137,63.3212],[26.9566,63.1177],[27.1256,63.0055],[26.8955,62.989],[26.9089,62.8499],[27.012,62.7561],[27.4825,62.7058],[28.3608,62.6124],[28.1667,62.8765],[28.3859,62.9639],[28.4715,63.1074],[28.7624,63.1367],[28.6108,63.2038],[28.4389,63.3513],[28.0884,63.4033],[27.7,63.25],[27.9433,63.0066],[27.8319,62.9519],[27.4202,62.9936],[27.5266,63.1622],[27.1829,63.3302],[27.137,63.3212]]]},"properties":{"mncplty":"Kuopio"}},
{"type":"Feature","geometry":{"type":"Polygon","coordinates":[[[23.5195,62.9196],[23.2789,62.7747],[23.2713,62.7357],[23.5481,62.6512],[23.847,62.7626],[23.5195,62.9196]]]},"properties":{"mncplty":"Kuortane"}},
{"type":"Feature","geometry":{"type":"Polygon","coordinates":[[[22.2007,62.7516],[21.7721,62.8636],[21.7291,62.7677],[21.6622,62.64],[22.0996,62.6054],[22.0415,62.5414],[22.5814,62.4677],[22.6343,62.3009],[22.8313,62.2709],[22.9944,62.2889],[23.1445,62.3192],[22.8577,62.6342],[22.6653,62.5999],[22.2007,62.7516]]]},"properties":{"mncplty":"Kurikka"}},
{"type":"Feature","geometry":{"type":"Polygon","coordinates":[[[21.4743,60.4817],[21.3816,60.583],[21.3621,60.524],[21.4743,60.4817]]]},"properties":{"mncplty":"Kustavi"}},
{"type":"Feature","geometry":{"type":"Polygon","coordinates":[[[29.5729,66.4329],[28.6953,66.4859],[28.5381,66.3326],[28.7497,66.2545],[28.6042,66.1282],[28.7642,66.0433],[28.3903,65.9963],[28.5132,65.8462],[28.6668,65.6213],[28.9319,65.6467],[29.2132,65.5185],[29.7547,65.4974],[29.7219,65.6371],[30.1341,65.6997],[29.5729,66.4329]]]},"properties":{"mncplty":"Kuusamo"}},
{"type":"Feature","geometry":{"type":"Polygon","coordinates":[[[24.3009,62.9884],[24.3482,62.9637],[24.8817,63.0457],[24.7729,63.1334],[24.359,63.1164],[24.3009,62.9884]]]},"properties":{"mncplty":"Kyyjärvi"}},
{"type":"Feature","geometry":{"type":"Polygon","coordinates":[[[25.111,60.8186],[25.4333,60.7954],[25.4022,60.8544],[25.2614,60.9817],[25.1081,60.8651],[25.111,60.8186]]]},"properties":{"mncplty":"Kärkölä"}},
{"type":"Feature","geometry":{"type":"Polygon","coordinates":[[[25.662,63.7998],[26.2509,63.9264],[26.1888,63.9951],[25.7773,64.1106],[25.534,63.9216],[25.662,63.7998]]]},"properties":{"mncplty":"Kärsämäki"}},
{"type":"Feature","geometry":{"type":"Polygon","coordinates":[[[20.9353,59.8997],[20.9942,59.9594],[20.8576,59.9392],[20.9353,59.8997]]]},"properties":{"mncplty":"Kökar"}},
{"type":"Feature","geometry":{"type":"Polygon","coordinates":[[[25.7835,61.0963],[25.5403,60.9983],[25.6575,60.9064],[26.1399,60.9072],[26.051,61.101],[25.8581,61.1027],[25.7835,61.0963]]]},"properties":{"mncplty":"Lahti"}},
{"type":"Feature","geometry":{"type":"Polygon","coordinates":[[[22.2739,62.7911],[22.144,62.9631],[21.9121,63.0488],[21.7851,62.894],[21.7721,62.8636],[22.2007,62.7516],[22.2739,62.7911]]]},"properties":{"mncplty":"Laihia"}},
{"type":"Feature","geometry":{"type":"Polygon","coordinates":[[[21.8441,61.0094],[21.6656,60.9963],[21.5055,60.8835],[21.732,60.7593],[21.7988,60.7385],[22.1285,60.9042],[21.8441,61.0094]]]},"properties":{"mncplty":"Laitila"}},
{"type":"Feature","geometry":{"type":"Polygon","coordinates":[[[26.2084,60.758],[25.9335,60.7059],[26.0006,60.6438],[26.2862,60.5002],[26.3471,60.6614],[26.3001,60.7492],[26.2084,60.758]]]},"properties":{"mncplty":"Lapinjärvi"}},
{"type":"Feature","geometry":{"type":"Polygon","coordinates":[[[27.1829,63.3302],[27.5266,63.1622],[27.7,63.25],[28.0884,63.4033],[28.0418,63.5501],[27.6252,63.5025],[27.2186,63.4515],[27.1829,63.3302]]]},"properties":{"mncplty":"Lapinlahti"}},
{"type":"Feature","geometry":{"type":"Polygon","coordinates":[[[23.7156,63.1119],[23.862,63.2776],[23.697,63.3803],[23.4435,63.2818],[23.3146,63.2008],[23.4548,63.0633],[23.5008,62.979],[23.7156,63.1119]]]},"properties":{"mncplty":"Lappajärvi"}},
{"type":"Feature","geometry":{"type":"Polygon","coordinates":[[[28.7017,61.2316],[28.3979,61.2847],[28.3312,61.1294],[27.9911,61.0615],[27.8576,60.9938],[27.9243,60.8683],[27.7139,60.7953],[27.9913,60.669],[28.7766,61.0793],[28.7017,61.2316]]]},"properties":{"mncplty":"Lappeenranta"}},
{"type":"Feature","geometry":{"type":"Polygon","coordinates":[[[23.5008,62.979],[23.4548,63.0633],[22.7841,63.0379],[22.8178,62.871],[23.2789,62.7747],[23.5195,62.9196],[23.5008,62.979]]]},"properties":{"mncplty":"Lapua"}},
{"type":"Feature","geometry":{"type":"Polygon","coordinates":[[[22.7862,63.6951],[22.8297,63.7359],[22.9215,63.7751],[22.808,63.89],[22.6581,63.721],[22.7862,63.6951]]]},"properties":{"mncplty":"Larsmo"}},
{"type":"Feature","geometry":{"type":"Polygon","coordinates":[[[26.2187,62.4911],[26.036,62.5836],[25.6952,62.4915],[25.5791,62.4287],[26.051,62.2676],[26.0486,62.1813],[26.3159,62.2005],[26.2187,62.4911]]]},"properties":{"mncplty":"Laukaa"}},
{"type":"Feature","geometry":{"type":"Polygon","coordinates":[[[27.9911,61.0615],[27.7842,61.1637],[27.5728,61.0177],[27.8576,60.9938],[27.9911,61.0615]]]},"properties":{"mncplty":"Lemi"}},
{"type":"Feature","geometry":{"type":"Polygon","coordinates":[[[19.9996,60.0972],[20.0079,60.0502],[20.2091,59.9745],[20.1912,60.0858],[20.0174,60.1034],[19.9996,60.0972]]]},"properties":{"mncplty":"Lemland"}},
{"type":"Feature","geometry":{"type":"Polygon","coordinates":[[[23.8114,61.2307],[23.9578,61.3313],[23.8902,61.4274],[23.7411,61.4322],[23.5483,61.3583],[23.7371,61.259],[23.8114,61.2307]]]},"properties":{"mncplty":"Lempäälä"}},
{"type":"Feature","geometry":{"type":"Polygon","coordinates":[[[28.467,62.5832],[28.3608,62.6124],[27.4825,62.7058],[27.4085,62.5039],[27.6919,62.3748],[27.758,62.3674],[28.0317,62.2955],[28.315,62.3546],[28.467,62.5832]]]},"properties":{"mncplty":"Leppävirta"}},
{"type":"Feature","geometry":{"type":"Polygon","coordinates":[[[24.4862,63.3752],[24.7729,63.3587],[25.0363,63.4581],[24.6187,63.6509],[24.4085,63.566],[24.4669,63.5254],[24.4862,63.3752]]]},"properties":{"mncplty":"Lestijärvi"}},
{"type":"Feature","geometry":{"type":"Polygon","coordinates":[[[31.2382,63.1951],[29.9719,63.7572],[29.7757,63.7034],[29.5426,63.6149],[29.4673,63.3479],[29.7872,63.0515],[29.96,63.0195],[30.3614,62.9984],[31.2382,63.1951]]]},"properties":{"mncplty":"Lieksa"}},
{"type":"Feature","geometry":{"type":"Polygon","coordinates":[[[22.4457,60.6409],[22.3653,60.4783],[22.5788,60.4951],[22.8289,60.5244],[22.8547,60.6293],[22.6821,60.6396],[22.5362,60.5666],[22.4457,60.6409]]]},"properties":{"mncplty":"Lieto"}},
{"type":"Feature","geometry":{"type":"Polygon","coordinates":[[[25.4451,64.8924],[25.3801,64.8869],[25.3037,64.8491],[25.1682,64.7342],[25.5203,64.6289],[25.7399,64.5177],[26.2911,64.4791],[25.9981,64.677],[26.0751,64.5816],[25.7559,64.6623],[25.7258,64.5826],[25.5011,64.7069],[25.5553,64.8489],[25.4451,64.8924]]]},"properties":{"mncplty":"Liminka"}},
{"type":"Feature","geometry":{"type":"Polygon","coordinates":[[[29.1664,62.3863],[29.296,62.3867],[29.7632,62.4074],[29.6372,62.6545],[29.5848,62.7215],[29.304,62.718],[28.944,62.5768],[29.1664,62.3863]]]},"properties":{"mncplty":"Liperi"}},
{"type":"Feature","geometry":{"type":"Polygon","coordinates":[[[24.0458,60.1501],[24.3057,60.2946],[24.1713,60.4847],[23.9713,60.6382],[23.9005,60.6498],[23.7375,60.4904],[23.6205,60.1941],[23.899,60.206],[23.9424,60.1295],[24.0458,60.1501]]]},"properties":{"mncplty":"Lohja"}},
{"type":"Feature","geometry":{"type":"Polygon","coordinates":[[[22.7015,60.9869],[22.5862,60.9388],[22.6024,60.9269],[22.7585,60.9371],[22.7577,60.8153],[22.9384,60.7157],[22.9652,60.7109],[23.1546,60.7742],[23.2667,60.8891],[23.1954,61.0012],[22.9685,61.0433],[22.8239,61.1014],[22.7015,60.9869]]]},"properties":{"mncplty":"Loimaa"}},
{"type":"Feature","geometry":{"type":"Polygon","coordinates":[[[24.6159,60.6676],[24.6909,60.7515],[24.423,60.7712],[24.0632,60.7935],[24.0467,60.6423],[24.4237,60.5525],[24.5773,60.5858],[24.6159,60.6676]]]},"properties":{"mncplty":"Loppi"}},
{"type":"Feature","geometry":{"type":"Polygon","coordinates":[[[26.3471,60.6614],[26.2862,60.5002],[26.0006,60.6438],[25.8232,60.551],[25.9273,60.3282],[26.1203,60.3271],[25.989,60.4768],[26.2036,60.3629],[26.488,60.4374],[26.5418,60.575],[26.3471,60.6614]]]},"properties":{"mncplty":"Loviisa"}},
{"type":"Feature","geometry":{"type":"Polygon","coordinates":[[[25.845,61.8014],[25.8501,61.8906],[25.5964,61.8395],[25.5352,61.7796],[25.5013,61.6769],[25.7712,61.6851],[25.845,61.8014]]]},"properties":{"mncplty":"Luhanka"}},
{"type":"Feature","geometry":{"type":"Polygon","coordinates":[[[25.3037,64.8491],[24.9942,64.9077],[25.1682,64.7342],[25.3037,64.8491]]]},"properties":{"mncplty":"Lumijoki"}},
{"type":"Feature","geometry":{"type":"Polygon","coordinates":[[[20.2825,60.0637],[20.2608,60.1519],[20.2135,60.106],[20.2825,60.0637]]]},"properties":{"mncplty":"Lumparland"}},
{"type":"Feature","geometry":{"type":"Polygon","coordinates":[[[27.4284,60.8426],[27.7139,60.7953],[27.9243,60.8683],[27.8576,60.9938],[27.5728,61.0177],[27.2285,61.0902],[27.1361,60.9512],[27.4284,60.8426]]]},"properties":{"mncplty":"Luumäki"}},
{"type":"Feature","geometry":{"type":"Polygon","coordinates":[[[21.5631,62.9848],[21.4421,63.013],[21.3133,62.8819],[21.3744,62.7579],[21.7291,62.7677],[21.7721,62.8636],[21.7851,62.894],[21.5631,62.9848]]]},"properties":{"mncplty":"Malax"}},
{"type":"Feature","geometry":{"type":"Polygon","coordinates":[[[19.887,60.0888],[20.0079,60.0502],[19.9996,60.0972],[19.887,60.0888]]]},"properties":{"mncplty":"Mariehamn"}},
{"type":"Feature","geometry":{"type":"Polygon","coordinates":[[[22.9652,60.7109],[22.9384,60.7157],[22.8547,60.6293],[22.8289,60.5244],[22.846,60.5109],[23.1007,60.5735],[22.9652,60.7109]]]},"properties":{"mncplty":"Marttila"}},
{"type":"Feature","geometry":{"type":"Polygon","coordinates":[[[22.21,60.5957],[21.9274,60.6022],[21.8369,60.5791],[21.7937,60.5532],[21.9215,60.5141],[22.0069,60.5004],[22.0851,60.515],[22.1438,60.5297],[22.21,60.5957]]]},"properties":{"mncplty":"Masku"}},
{"type":"Feature","geometry":{"type":"Polygon","coordinates":[[[24.5821,64.1865],[24.5388,64.2775],[24.7972,64.3775],[24.2646,64.3121],[24.2877,64.3001],[24.5821,64.1865]]]},"properties":{"mncplty":"Merijärvi"}},
{"type":"Feature","geometry":{"type":"Polygon","coordinates":[[[21.6478,62.0196],[21.332,61.967],[21.5367,61.7374],[21.7281,61.7479],[21.7494,62.0159],[21.6478,62.0196]]]},"properties":{"mncplty":"Merikarvia"}},
{"type":"Feature","geometry":{"type":"Polygon","coordinates":[[[27.4547,60.6411],[27.8887,60.6129],[27.9913,60.669],[27.7139,60.7953],[27.4284,60.8426],[27.4547,60.6411]]]},"properties":{"mncplty":"Miehikkälä"}},
{"type":"Feature","geometry":{"type":"Polygon","coordinates":[[[26.9637,61.5034],[27.1649,61.4017],[26.9539,61.3476],[27.3785,61.2142],[27.7926,61.3621],[27.6788,61.4061],[27.9004,61.5456],[27.3925,62.0059],[27.1355,62.1992],[26.8527,62.1289],[27.1266,61.9637],[26.8322,61.8503],[26.9637,61.5034]]]},"properties":{"mncplty":"Mikkeli"}},
{"type":"Feature","geometry":{"type":"Polygon","coordinates":[[[26.2911,64.4791],[26.4616,64.5651],[26.1833,64.8179],[26.3943,64.8444],[26.051,64.9778],[25.7505,64.889],[25.9981,64.677],[26.2911,64.4791]]]},"properties":{"mncplty":"Muhos"}},
{"type":"Feature","geometry":{"type":"Polygon","coordinates":[[[25.069,62.3321],[25.1248,62.427],[25.2519,62.5377],[24.8998,62.6021],[24.7141,62.5315],[24.5822,62.6648],[24.5306,62.5284],[24.7417,62.3274],[25.069,62.3321]]]},"properties":{"mncplty":"Multia"}},
{"type":"Feature","geometry":{"type":"Polygon","coordinates":[[[23.2867,68.1543],[23.6646,67.9412],[23.4772,67.8399],[23.5405,67.461],[24.2729,67.6269],[24.1068,68.1389],[23.2867,68.1543]]]},"properties":{"mncplty":"Muonio"}},
{"type":"Feature","geometry":{"type":"Polygon","coordinates":[[[25.768,62.0636],[25.7952,62.0944],[25.4939,62.233],[25.4797,62.0861],[25.768,62.0636]]]},"properties":{"mncplty":"Muurame"}},
{"type":"Feature","geometry":{"type":"Polygon","coordinates":[[[22.1285,60.9042],[21.7988,60.7385],[21.7831,60.6146],[21.8369,60.5791],[21.9274,60.6022],[22.415,60.7373],[22.1603,60.872],[22.1285,60.9042]]]},"properties":{"mncplty":"Mynämäki"}},
{"type":"Feature","geometry":{"type":"Polygon","coordinates":[[[25.8232,60.551],[26.0006,60.6438],[25.9335,60.7059],[25.7468,60.7081],[25.6596,60.6139],[25.8232,60.551]]]},"properties":{"mncplty":"Myrskylä"}},
{"type":"Feature","geometry":{"type":"Polygon","coordinates":[[[25.5162,60.5799],[25.5193,60.7039],[25.4333,60.7954],[25.111,60.8186],[25.1125,60.6616],[25.0453,60.5769],[25.1281,60.5285],[25.1693,60.5062],[25.2242,60.5016],[25.4155,60.5415],[25.5162,60.5799]]]},"properties":{"mncplty":"Mäntsälä"}},
{"type":"Feature","geometry":{"type":"Polygon","coordinates":[[[24.5246,61.9093],[24.7309,62.0232],[24.5602,62.1857],[24.2113,62.2523],[24.0355,62.121],[24.2848,62.0776],[24.4386,61.9106],[24.5246,61.9093]]]},"properties":{"mncplty":"Mänttä-Vilppula"}},
{"type":"Feature","geometry":{"type":"Polygon","coordinates":[[[26.2648,61.4258],[26.5137,61.2743],[26.6613,61.2069],[26.8523,61.2837],[26.9121,61.1832],[27.2058,61.1625],[27.3785,61.2142],[26.9539,61.3476],[27.1649,61.4017],[26.9637,61.5034],[26.5155,61.6271],[26.315,61.6084],[26.2648,61.4258]]]},"properties":{"mncplty":"Mäntyharju"}},
{"type":"Feature","geometry":{"type":"MultiPolygon","coordinates":[[[[22.0069,60.5004],[22.1051,60.4396],[22.1078,60.4479],[22.0851,60.515],[22.0069,60.5004]]],[[[21.7937,60.5532],[21.7133,60.4868],[21.9215,60.5141],[21.7937,60.5532]]],[[[21.9777,60.2979],[22.0125,60.3871],[21.8324,60.4811],[21.9777,60.2979]]]]},"properties":{"mncplty":"Naantali"}},
{"type":"Feature","geometry":{"type":"Polygon","coordinates":[[[22.0212,61.2944],[22.1661,61.4055],[21.8037,61.3851],[21.7132,61.3899],[21.8762,61.2967],[22.0212,61.2944]]]},"properties":{"mncplty":"Nakkila"}},
{"type":"Feature","geometry":{"type":"Polygon","coordinates":[[[25.3664,63.93],[25.0212,64.0679],[24.6391,63.9468],[24.9674,63.8006],[25.1071,63.7718],[25.3664,63.93]]]},"properties":{"mncplty":"Nivala"}},
{"type":"Feature","geometry":{"type":"Polygon","coordinates":[[[23.1938,61.5378],[23.2207,61.3284],[23.4776,61.3968],[23.6131,61.4778],[23.5423,61.5333],[23.4422,61.5722],[23.1938,61.5378]]]},"properties":{"mncplty":"Nokia"}},
{"type":"Feature","geometry":{"type":"Polygon","coordinates":[[[22.21,60.5957],[22.415,60.7373],[21.9274,60.6022],[22.21,60.5957]]]},"properties":{"mncplty":"Nousiainen"}},
{"type":"Feature","geometry":{"type":"Polygon","coordinates":[[[29.4673,63.3479],[29.5426,63.6149],[29.7757,63.7034],[29.6825,63.8789],[29.1583,63.8473],[28.5008,63.8824],[28.3596,63.7548],[28.7595,63.3878],[29.1068,63.4497],[29.4673,63.3479]]]},"properties":{"mncplty":"Nurmes"}},
{"type":"Feature","geometry":{"type":"Polygon","coordinates":[[[24.7493,60.3418],[24.8689,60.4013],[24.9122,60.5556],[24.6488,60.5167],[24.5248,60.4768],[24.6277,60.3592],[24.7493,60.3418]]]},"properties":{"mncplty":"Nurmijärvi"}},
{"type":"Feature","geometry":{"type":"Polygon","coordinates":[[[22.4925,63.6234],[22.2084,63.4719],[22.3635,63.3458],[22.6166,63.282],[22.9716,63.3723],[22.5394,63.6108],[22.4925,63.6234]]]},"properties":{"mncplty":"Nykarleby"}},
{"type":"Feature","geometry":{"type":"Polygon","coordinates":[[[21.2837,62.3629],[21.3228,62.3188],[21.5541,62.4243],[21.6622,62.64],[21.7291,62.7677],[21.3744,62.7579],[21.2966,62.669],[21.0924,62.6872],[21.1658,62.3777],[21.2531,62.4262],[21.2837,62.3629]]]},"properties":{"mncplty":"Närpes"}},
{"type":"Feature","geometry":{"type":"Polygon","coordinates":[[[25.4022,60.8544],[25.4333,60.7954],[25.5193,60.7039],[25.7468,60.7081],[25.9335,60.7059],[26.2084,60.758],[26.1399,60.9072],[25.6575,60.9064],[25.4022,60.8544]]]},"properties":{"mncplty":"Orimattila"}},
{"type":"Feature","geometry":{"type":"Polygon","coordinates":[[[22.6024,60.9269],[22.7577,60.8153],[22.7585,60.9371],[22.6024,60.9269]]]},"properties":{"mncplty":"Oripää"}},
{"type":"Feature","geometry":{"type":"Polygon","coordinates":[[[24.2274,61.8248],[24.0908,61.7928],[24.1185,61.6272],[24.6256,61.5137],[24.8283,61.5534],[24.812,61.66],[24.6667,61.863],[24.5554,61.7155],[24.2274,61.8248]]]},"properties":{"mncplty":"Orivesi"}},
{"type":"Feature","geometry":{"type":"Polygon","coordinates":[[[25.2002,64.3209],[24.8779,64.3918],[24.7972,64.3775],[24.5388,64.2775],[24.5821,64.1865],[24.9064,64.1095],[25.2002,64.3209]]]},"properties":{"mncplty":"Oulainen"}},
{"type":"Feature","geometry":{"type":"Polygon","coordinates":[[[25.2807,65.252],[25.4926,64.9714],[25.1982,64.985],[25.3801,64.8869],[25.4451,64.8924],[25.7283,64.9045],[25.7505,64.889],[26.051,64.9778],[26.3943,64.8444],[26.7684,64.9528],[26.6286,65.097],[26.2337,65.2742],[26.4267,65.3472],[26.1533,65.4191],[26.1556,65.5552],[25.7891,65.5503],[25.6602,65.2404],[25.2807,65.252]]]},"properties":{"mncplty":"Oulu"}},
{"type":"Feature","geometry":{"type":"Polygon","coordinates":[[[28.944,62.5768],[29.304,62.718],[29.0976,62.8456],[28.7444,62.8124],[28.6551,62.657],[28.944,62.5768]]]},"properties":{"mncplty":"Outokumpu"}},
{"type":"Feature","geometry":{"type":"Polygon","coordinates":[[[25.5452,61.3292],[25.4374,61.4869],[24.9705,61.4507],[24.86,61.476],[24.9139,61.3249],[25.2028,61.2409],[25.5452,61.3292]]]},"properties":{"mncplty":"Padasjoki"}},
{"type":"Feature","geometry":{"type":"Polygon","coordinates":[[[22.6075,60.3818],[22.8189,60.3729],[22.846,60.5109],[22.8289,60.5244],[22.5788,60.4951],[22.6075,60.3818]]]},"properties":{"mncplty":"Paimio"}},
{"type":"Feature","geometry":{"type":"Polygon","coordinates":[[[28.1328,64.3171],[28.463,64.3752],[27.8705,64.5773],[27.5347,64.5026],[27.397,64.5719],[27.1878,64.3103],[28.1328,64.3171]]]},"properties":{"mncplty":"Paltamo"}},
{"type":"Feature","geometry":{"type":"MultiPolygon","coordinates":[[[[21.7863,60.121],[21.9131,60.2087],[21.7636,60.2079],[21.7863,60.121]]],[[[22.4805,60.3401],[22.1117,60.2812],[22.2928,60.2008],[22.4805,60.3401]]]]},"properties":{"mncplty":"Pargas"}},
{"type":"Feature","geometry":{"type":"Polygon","coordinates":[[[29.5593,61.7221],[29.2616,61.5578],[29.2364,61.5202],[29.4443,61.4245],[30.144,61.8522],[29.5593,61.7221]]]},"properties":{"mncplty":"Parikkala"}},
{"type":"Feature","geometry":{"type":"Polygon","coordinates":[[[23.3108,61.9495],[23.2952,62.0829],[23.1411,62.0827],[22.9944,62.2889],[22.8313,62.2709],[22.7802,62.0607],[22.5226,61.9981],[22.6466,61.9521],[22.7387,61.9106],[23.3108,61.9495]]]},"properties":{"mncplty":"Parkano"}},
{"type":"Feature","geometry":{"type":"Polygon","coordinates":[[[23.3929,63.498],[22.8297,63.7359],[22.7862,63.6951],[22.5394,63.6108],[22.9716,63.3723],[23.207,63.399],[23.3929,63.498]]]},"properties":{"mncplty":"Pedersöre"}},
{"type":"Feature","geometry":{"type":"Polygon","coordinates":[[[27.8816,66.8859],[27.9565,67.0295],[28.3598,67.1081],[27.8758,67.1754],[27.7699,67.3044],[27.2219,67.4253],[27.0196,67.1671],[26.518,66.9429],[27.5846,67.0072],[27.8816,66.8859]]]},"properties":{"mncplty":"Pelkosenniemi"}},
{"type":"Feature","geometry":{"type":"Polygon","coordinates":[[[23.7844,66.9969],[23.9953,66.8212],[23.7971,66.5211],[24.1859,66.5125],[24.7396,66.7536],[24.9881,66.7544],[24.8702,66.9379],[23.7844,66.9969]]]},"properties":{"mncplty":"Pello"}},
{"type":"Feature","geometry":{"type":"Polygon","coordinates":[[[24.359,63.1164],[24.7729,63.1334],[24.8036,63.2759],[24.7729,63.3587],[24.4862,63.3752],[24.1646,63.3319],[24.052,63.2581],[24.1708,63.148],[24.359,63.1164]]]},"properties":{"mncplty":"Perho"}},
{"type":"Feature","geometry":{"type":"Polygon","coordinates":[[[25.2854,62.3892],[25.1248,62.427],[25.069,62.3321],[24.9688,62.2108],[25.2852,62.1524],[25.4699,62.3245],[25.2854,62.3892]]]},"properties":{"mncplty":"Petäjävesi"}},
{"type":"Feature","geometry":{"type":"Polygon","coordinates":[[[26.6832,62.3077],[26.8527,62.1289],[27.1355,62.1992],[27.3925,62.0059],[27.6531,62.0278],[27.5316,62.2681],[27.6919,62.3748],[27.4085,62.5039],[26.8795,62.4855],[26.7091,62.4529],[26.6832,62.3077]]]},"properties":{"mncplty":"Pieksämäki"}},
{"type":"Feature","geometry":{"type":"Polygon","coordinates":[[[26.8246,63.5164],[26.6935,63.4435],[26.1654,63.4809],[26.167,63.4553],[26.1767,63.4389],[26.6068,63.0421],[26.9566,63.1177],[27.137,63.3212],[26.8246,63.5164]]]},"properties":{"mncplty":"Pielavesi"}},
{"type":"Feature","geometry":{"type":"Polygon","coordinates":[[[25.2452,63.6103],[25.0819,63.4672],[25.3335,63.2843],[26.1419,63.2747],[26.1767,63.4389],[26.167,63.4553],[25.348,63.5815],[25.2452,63.6103]]]},"properties":{"mncplty":"Pihtipudas"}},
{"type":"Feature","geometry":{"type":"Polygon","coordinates":[[[23.7411,61.4322],[23.6131,61.4778],[23.4776,61.3968],[23.5483,61.3583],[23.7411,61.4322]]]},"properties":{"mncplty":"Pirkkala"}},
{"type":"Feature","geometry":{"type":"Polygon","coordinates":[[[29.0648,62.9866],[29.0976,62.8456],[29.304,62.718],[29.5848,62.7215],[29.7233,62.847],[29.6057,62.9685],[29.4161,63.107],[29.0648,62.9866]]]},"properties":{"mncplty":"Polvijärvi"}},
{"type":"Feature","geometry":{"type":"Polygon","coordinates":[[[22.0875,61.7827],[21.7281,61.7479],[22.0343,61.615],[22.3827,61.7094],[22.0875,61.7827]]]},"properties":{"mncplty":"Pomarkku"}},
{"type":"Feature","geometry":{"type":"Polygon","coordinates":[[[21.7132,61.3899],[21.8037,61.3851],[22.0971,61.5733],[22.4342,61.4889],[22.6961,61.5998],[22.6472,61.6965],[22.3827,61.7094],[22.0343,61.615],[21.7281,61.7479],[21.5367,61.7374],[21.6556,61.5724],[21.4961,61.5886],[21.5272,61.4424],[21.7132,61.3899]]]},"properties":{"mncplty":"Pori"}},
{"type":"Feature","geometry":{"type":"Polygon","coordinates":[[[25.4155,60.5415],[25.2242,60.5016],[25.3634,60.4061],[25.4315,60.4829],[25.4155,60.5415]]]},"properties":{"mncplty":"Pornainen"}},
{"type":"Feature","geometry":{"type":"Polygon","coordinates":[[[25.4315,60.4829],[25.3634,60.4061],[25.5145,60.2712],[25.6289,60.3391],[25.9189,60.2549],[25.9273,60.3282],[25.8232,60.551],[25.4315,60.4829]]]},"properties":{"mncplty":"Porvoo"}},
{"type":"Feature","geometry":{"type":"Polygon","coordinates":[[[27.2498,66.332],[27.26,66.1983],[27.4692,66.1038],[27.4074,65.9384],[27.6549,65.9604],[27.7611,65.8273],[28.5132,65.8462],[28.3903,65.9963],[28.7642,66.0433],[28.6042,66.1282],[28.7497,66.2545],[28.5381,66.3326],[28.6953,66.4859],[28.1386,66.4319],[27.596,66.4009],[27.4147,66.2891],[27.2498,66.332]]]},"properties":{"mncplty":"Posio"}},
{"type":"Feature","geometry":{"type":"Polygon","coordinates":[[[26.1556,65.5552],[26.1533,65.4191],[26.4267,65.3472],[26.2337,65.2742],[26.6286,65.097],[27.3299,65.0907],[27.8943,65.0915],[27.9956,65.2212],[28.1624,65.2503],[27.777,65.5074],[27.7611,65.8273],[27.6549,65.9604],[27.4074,65.9384],[27.072,65.7298],[26.1582,65.7256],[26.1556,65.5552]]]},"properties":{"mncplty":"Pudasjärvi"}},
{"type":"Feature","geometry":{"type":"Polygon","coordinates":[[[25.6596,60.6139],[25.7468,60.7081],[25.5193,60.7039],[25.5162,60.5799],[25.6596,60.6139]]]},"properties":{"mncplty":"Pukkila"}},
{"type":"Feature","geometry":{"type":"Polygon","coordinates":[[[22.9685,61.0433],[23.1954,61.0012],[23.26,61.0186],[23.2729,61.2211],[22.9342,61.205],[22.9685,61.0433]]]},"properties":{"mncplty":"Punkalaidun"}},
{"type":"Feature","geometry":{"type":"Polygon","coordinates":[[[28.2943,64.8984],[28.1985,65.2047],[27.9956,65.2212],[27.8943,65.0915],[27.3299,65.0907],[27.4026,64.8552],[27.1481,64.8353],[27.397,64.5719],[27.5347,64.5026],[27.8705,64.5773],[28.0743,64.6329],[28.056,64.8086],[28.2943,64.8984]]]},"properties":{"mncplty":"Puolanka"}},
{"type":"Feature","geometry":{"type":"Polygon","coordinates":[[[27.9004,61.5456],[27.6788,61.4061],[27.7926,61.3621],[27.9312,61.3504],[28.2522,61.3797],[28.4401,61.5116],[28.8118,61.5358],[28.1761,61.7169],[27.9004,61.5456]]]},"properties":{"mncplty":"Puumala"}},
{"type":"Feature","geometry":{"type":"Polygon","coordinates":[[[26.7539,60.5757],[26.6828,60.6493],[26.5418,60.575],[26.488,60.4374],[26.8419,60.4579],[26.7539,60.5757]]]},"properties":{"mncplty":"Pyhtää"}},
{"type":"Feature","geometry":{"type":"Polygon","coordinates":[[[24.2646,64.3121],[24.7972,64.3775],[24.8779,64.3918],[24.2967,64.5414],[23.9845,64.377],[24.2646,64.3121]]]},"properties":{"mncplty":"Pyhäjoki"}},
{"type":"Feature","geometry":{"type":"Polygon","coordinates":[[[25.348,63.5815],[26.167,63.4553],[26.1654,63.4809],[26.2434,63.841],[26.2509,63.9264],[25.662,63.7998],[25.348,63.5815]]]},"properties":{"mncplty":"Pyhäjärvi"}},
{"type":"Feature","geometry":{"type":"Polygon","coordinates":[[[26.7709,64.216],[26.3974,64.2289],[26.1423,64.1356],[26.1888,63.9951],[26.2509,63.9264],[26.2434,63.841],[26.5594,63.9637],[26.8704,64.037],[26.7709,64.216]]]},"properties":{"mncplty":"Pyhäntä"}},
{"type":"Feature","geometry":{"type":"Polygon","coordinates":[[[21.6656,60.9963],[21.3405,61.0889],[21.4123,60.9459],[21.5055,60.8835],[21.6656,60.9963]]]},"properties":{"mncplty":"Pyhäranta"}},
{"type":"Feature","geometry":{"type":"Polygon","coordinates":[[[24.9139,61.3249],[24.86,61.476],[24.282,61.4381],[24.0791,61.3305],[24.3024,61.2332],[24.9139,61.3249]]]},"properties":{"mncplty":"Pälkäne"}},
{"type":"Feature","geometry":{"type":"Polygon","coordinates":[[[22.6821,60.6396],[22.8547,60.6293],[22.9384,60.7157],[22.7577,60.8153],[22.6024,60.9269],[22.5862,60.9388],[22.2636,60.9269],[22.1603,60.872],[22.415,60.7373],[22.6821,60.6396]]]},"properties":{"mncplty":"Pöytyä"}},
{"type":"Feature","geometry":{"type":"Polygon","coordinates":[[[25.4629,64.3626],[25.421,64.4158],[24.7364,64.5869],[24.5595,64.7917],[24.2967,64.5414],[24.8779,64.3918],[25.2002,64.3209],[25.4629,64.3626]]]},"properties":{"mncplty":"Raahe"}},
{"type":"Feature","geometry":{"type":"Polygon","coordinates":[[[22.0851,60.515],[22.1078,60.4479],[22.2459,60.505],[22.1438,60.5297],[22.0851,60.515]]]},"properties":{"mncplty":"Raisio"}},
{"type":"Feature","geometry":{"type":"Polygon","coordinates":[[[27.8718,62.0065],[28.2217,61.9376],[28.3707,61.9246],[28.7156,61.9675],[28.3891,62.2144],[28.0489,62.2353],[27.8718,62.0065]]]},"properties":{"mncplty":"Rantasalmi"}},
{"type":"Feature","geometry":{"type":"Polygon","coordinates":[[[26.1582,65.7256],[27.072,65.7298],[27.4074,65.9384],[27.4692,66.1038],[27.26,66.1983],[26.7274,66.2986],[26.0673,66.1591],[25.7639,66.089],[25.681,65.892],[25.9392,65.774],[26.1601,65.8223],[26.1582,65.7256]]]},"properties":{"mncplty":"Ranua"}},
{"type":"Feature","geometry":{"type":"Polygon","coordinates":[[[23.2746,59.8634],[23.8208,59.9871],[23.9424,60.1295],[23.899,60.206],[23.6205,60.1941],[23.0329,60.0969],[22.8565,59.964],[23.0548,59.9227],[23.1073,59.9987],[23.1266,59.9187],[23.2746,59.8634]]]},"properties":{"mncplty":"Raseborg"}},
{"type":"Feature","geometry":{"type":"Polygon","coordinates":[[[21.8675,61.1457],[21.4427,61.2325],[21.3405,61.0889],[21.6656,60.9963],[21.8441,61.0094],[22.0707,61.0424],[21.8675,61.1457]]]},"properties":{"mncplty":"Rauma"}},
{"type":"Feature","geometry":{"type":"Polygon","coordinates":[[[26.7091,62.4529],[26.8795,62.4855],[26.8421,62.8046],[26.6672,62.8492],[26.4466,62.7892],[26.5984,62.6108],[26.4832,62.5324],[26.7091,62.4529]]]},"properties":{"mncplty":"Rautalampi"}},
{"type":"Feature","geometry":{"type":"Polygon","coordinates":[[[28.7595,63.3878],[28.3596,63.7548],[28.2739,63.6688],[28.1688,63.7148],[28.0418,63.5501],[28.0884,63.4033],[28.4389,63.3513],[28.6108,63.2038],[28.7595,63.3878]]]},"properties":{"mncplty":"Rautavaara"}},
{"type":"Feature","geometry":{"type":"Polygon","coordinates":[[[29.2364,61.5202],[29.0646,61.4605],[29.0843,61.2104],[29.4443,61.4245],[29.2364,61.5202]]]},"properties":{"mncplty":"Rautjärvi"}},
{"type":"Feature","geometry":{"type":"Polygon","coordinates":[[[24.9556,63.7575],[24.9236,63.6703],[24.6187,63.6509],[25.0363,63.4581],[25.0819,63.4672],[25.2452,63.6103],[24.9556,63.7575]]]},"properties":{"mncplty":"Reisjärvi"}},
{"type":"Feature","geometry":{"type":"Polygon","coordinates":[[[24.7146,60.7965],[24.6909,60.7515],[24.6159,60.6676],[24.8351,60.6663],[24.7146,60.7965]]]},"properties":{"mncplty":"Riihimäki"}},
{"type":"Feature","geometry":{"type":"Polygon","coordinates":[[[28.0743,64.6329],[27.8705,64.5773],[28.463,64.3752],[28.7519,64.3102],[28.8598,64.4934],[28.0743,64.6329]]]},"properties":{"mncplty":"Ristijärvi"}},
{"type":"Feature","geometry":{"type":"Polygon","coordinates":[[[26.518,66.9429],[25.9045,67.1199],[25.35,67.1513],[24.7368,67.1519],[24.8702,66.9379],[24.9881,66.7544],[25.0504,66.4758],[24.7918,66.3322],[26.0673,66.1591],[26.7274,66.2986],[27.26,66.1983],[27.2498,66.332],[26.6975,66.5746],[26.518,66.9429]]]},"properties":{"mncplty":"Rovaniemi"}},
{"type":"Feature","geometry":{"type":"Polygon","coordinates":[[[29.022,61.1885],[29.0843,61.2104],[29.0646,61.4605],[29.2364,61.5202],[29.2616,61.5578],[28.9561,61.5407],[28.8118,61.5358],[28.4401,61.5116],[28.2522,61.3797],[28.3979,61.2847],[28.7017,61.2316],[28.9189,61.2757],[29.022,61.1885]]]},"properties":{"mncplty":"Ruokolahti"}},
{"type":"Feature","geometry":{"type":"Polygon","coordinates":[[[24.4386,61.9106],[24.2848,62.0776],[24.0355,62.121],[23.8554,62.1709],[23.6806,62.0844],[23.8555,61.8366],[24.0908,61.7928],[24.2274,61.8248],[24.4386,61.9106]]]},"properties":{"mncplty":"Ruovesi"}},
{"type":"Feature","geometry":{"type":"Polygon","coordinates":[[[22.1438,60.5297],[22.2459,60.505],[22.415,60.7373],[22.21,60.5957],[22.1438,60.5297]]]},"properties":{"mncplty":"Rusko"}},
{"type":"Feature","geometry":{"type":"Polygon","coordinates":[[[29.7632,62.4074],[29.296,62.3867],[29.4301,62.2365],[29.9514,62.1461],[30.0051,62.2443],[29.9496,62.3703],[29.7632,62.4074]]]},"properties":{"mncplty":"Rääkkylä"}},
{"type":"Feature","geometry":{"type":"Polygon","coordinates":[[[25.3004,62.8185],[25.0366,62.8623],[24.9002,62.7432],[24.5042,62.7104],[24.5196,62.686],[24.5822,62.6648],[24.7141,62.5315],[24.8998,62.6021],[25.2519,62.5377],[25.4839,62.5471],[25.4921,62.7261],[25.6966,62.7824],[25.5711,62.8593],[25.4673,62.9085],[25.3004,62.8185]]]},"properties":{"mncplty":"Saarijärvi"}},
{"type":"Feature","geometry":{"type":"Polygon","coordinates":[[[28.1386,66.4319],[28.6953,66.4859],[29.5729,66.4329],[29.0332,66.9255],[29.9302,67.5225],[30.017,67.6736],[29.6594,67.803],[28.6775,67.1394],[28.3598,67.1081],[27.9565,67.0295],[27.8816,66.8859],[28.1561,66.6977],[28.1386,66.4319]]]},"properties":{"mncplty":"Salla"}},
{"type":"Feature","geometry":{"type":"Polygon","coordinates":[[[23.1007,60.5735],[22.846,60.5109],[22.8189,60.3729],[22.8803,60.3051],[23.0435,60.3546],[22.8837,60.1763],[23.0329,60.0969],[23.6205,60.1941],[23.7375,60.4904],[23.5861,60.4837],[23.5158,60.5957],[23.2078,60.5857],[23.1007,60.5735]]]},"properties":{"mncplty":"Salo"}},
{"type":"Feature","geometry":{"type":"Polygon","coordinates":[[[20.024,60.2306],[20.2041,60.314],[19.9679,60.3955],[19.9461,60.3763],[20.024,60.2306]]]},"properties":{"mncplty":"Saltvik"}},
{"type":"Feature","geometry":{"type":"Polygon","coordinates":[[[22.9342,61.205],[23.2729,61.2211],[23.2793,61.2383],[23.2207,61.3284],[23.1938,61.5378],[22.8241,61.6751],[22.691,61.7025],[22.6472,61.6965],[22.6961,61.5998],[22.4342,61.4889],[22.5991,61.302],[22.9342,61.205]]]},"properties":{"mncplty":"Sastamala"}},
{"type":"Feature","geometry":{"type":"Polygon","coordinates":[[[22.5621,60.3571],[22.5095,60.263],[22.8803,60.3051],[22.8189,60.3729],[22.6075,60.3818],[22.5621,60.3571]]]},"properties":{"mncplty":"Sauvo"}},
{"type":"Feature","geometry":{"type":"Polygon","coordinates":[[[27.2285,61.0902],[27.5728,61.0177],[27.7842,61.1637],[27.9312,61.3504],[27.7926,61.3621],[27.3785,61.2142],[27.2058,61.1625],[27.2285,61.0902]]]},"properties":{"mncplty":"Savitaipale"}},
{"type":"Feature","geometry":{"type":"Polygon","coordinates":[[[28.5975,62.1496],[28.3891,62.2144],[28.7156,61.9675],[28.3707,61.9246],[28.6195,61.6432],[28.9561,61.5407],[29.2616,61.5578],[29.5593,61.7221],[29.6968,61.8644],[29.4301,62.2365],[29.296,62.3867],[29.1664,62.3863],[28.9321,62.2612],[29.0873,62.0309],[28.789,62.0197],[28.5975,62.1496]]]},"properties":{"mncplty":"Savonlinna"}},
{"type":"Feature","geometry":{"type":"Polygon","coordinates":[[[28.3598,67.1081],[28.6775,67.1394],[29.6594,67.803],[29.3271,68.0745],[28.6462,68.1963],[27.804,67.6491],[27.2219,67.4253],[27.7699,67.3044],[27.8758,67.1754],[28.3598,67.1081]]]},"properties":{"mncplty":"Savukoski"}},
{"type":"Feature","geometry":{"type":"Polygon","coordinates":[[[23.2713,62.7357],[23.2789,62.7747],[22.8178,62.871],[22.7841,63.0379],[22.6762,63.0839],[22.3026,62.7951],[22.7369,62.8713],[22.8577,62.6342],[23.1445,62.3192],[23.2178,62.3342],[23.3378,62.4251],[23.1612,62.6555],[23.2713,62.7357]]]},"properties":{"mncplty":"Seinäjoki"}},
{"type":"Feature","geometry":{"type":"Polygon","coordinates":[[[24.9674,63.8006],[24.6391,63.9468],[24.3066,64.0221],[24.1271,63.9828],[24.2475,63.8769],[24.6187,63.6509],[24.9236,63.6703],[24.9556,63.7575],[24.9674,63.8006]]]},"properties":{"mncplty":"Sievi"}},
{"type":"Feature","geometry":{"type":"Polygon","coordinates":[[[21.7494,62.0159],[21.7281,61.7479],[22.0875,61.7827],[22.1754,61.8788],[21.9747,61.9798],[21.7494,62.0159]]]},"properties":{"mncplty":"Siikainen"}},
{"type":"Feature","geometry":{"type":"Polygon","coordinates":[[[25.1682,64.7342],[24.9942,64.9077],[24.5595,64.7917],[24.7364,64.5869],[25.421,64.4158],[25.5203,64.6289],[25.1682,64.7342]]]},"properties":{"mncplty":"Siikajoki"}},
{"type":"Feature","geometry":{"type":"Polygon","coordinates":[[[25.7773,64.1106],[26.1888,63.9951],[26.1423,64.1356],[26.3974,64.2289],[26.7709,64.216],[26.7675,64.2652],[26.2911,64.4791],[25.7399,64.5177],[25.5203,64.6289],[25.421,64.4158],[25.4629,64.3626],[25.7773,64.1106]]]},"properties":{"mncplty":"Siikalatva"}},
{"type":"Feature","geometry":{"type":"Polygon","coordinates":[[[27.7,63.25],[27.5266,63.1622],[27.4202,62.9936],[27.8319,62.9519],[27.9433,63.0066],[27.7,63.25]]]},"properties":{"mncplty":"Siilinjärvi"}},
{"type":"Feature","geometry":{"type":"Polygon","coordinates":[[[25.9392,65.774],[25.681,65.892],[25.7639,66.089],[25.5449,66.1162],[25.2257,65.9615],[24.7474,65.695],[24.6651,65.6516],[25.0992,65.5942],[25.4245,65.7426],[25.9392,65.774]]]},"properties":{"mncplty":"Simo"}},
{"type":"Feature","geometry":{"type":"Polygon","coordinates":[[[25.2428,60.2514],[25.5145,60.2712],[25.3634,60.4061],[25.2242,60.5016],[25.1693,60.5062],[25.1807,60.4609],[25.1768,60.4411],[25.1728,60.3566],[25.1902,60.2857],[25.2428,60.2514]]]},"properties":{"mncplty":"Sipoo"}},
{"type":"Feature","geometry":{"type":"Polygon","coordinates":[[[24.2761,60.0597],[24.3615,60.0794],[24.3425,60.2462],[24.3057,60.2946],[24.0458,60.1501],[24.2761,60.0597]]]},"properties":{"mncplty":"Siuntio"}},
{"type":"Feature","geometry":{"type":"Polygon","coordinates":[[[25.9756,68.2776],[25.7607,67.4342],[25.35,67.1513],[25.9045,67.1199],[26.518,66.9429],[27.0196,67.1671],[27.2219,67.4253],[27.804,67.6491],[28.6462,68.1963],[28.479,68.4662],[25.9756,68.2776]]]},"properties":{"mncplty":"Sodankylä"}},
{"type":"Feature","geometry":{"type":"Polygon","coordinates":[[[24.0395,62.7365],[24.5196,62.686],[24.5042,62.7104],[24.3482,62.9637],[24.3009,62.9884],[24.0289,62.9719],[24.0395,62.7365]]]},"properties":{"mncplty":"Soini"}},
{"type":"Feature","geometry":{"type":"Polygon","coordinates":[[[23.4086,60.7398],[23.1546,60.7742],[23.2078,60.5857],[23.5158,60.5957],[23.5861,60.4837],[23.7375,60.4904],[23.9005,60.6498],[23.5021,60.744],[23.4086,60.7398]]]},"properties":{"mncplty":"Somero"}},
{"type":"Feature","geometry":{"type":"Polygon","coordinates":[[[27.6252,63.5025],[28.0418,63.5501],[28.1688,63.7148],[27.9263,63.8446],[27.1193,63.9908],[27.3576,63.8274],[27.261,63.6888],[27.6252,63.5025]]]},"properties":{"mncplty":"Sonkajärvi"}},
{"type":"Feature","geometry":{"type":"Polygon","coordinates":[[[27.9263,63.8446],[28.1688,63.7148],[28.2739,63.6688],[28.3596,63.7548],[28.5008,63.8824],[29.1583,63.8473],[29.211,63.9647],[28.7519,64.3102],[28.463,64.3752],[28.1328,64.3171],[27.7968,64.1624],[28.0654,63.9035],[27.9263,63.8446]]]},"properties":{"mncplty":"Sotkamo"}},
{"type":"Feature","geometry":{"type":"Polygon","coordinates":[[[20.7298,60.0841],[20.6238,60.1632],[20.6665,60.0877],[20.7298,60.0841]]]},"properties":{"mncplty":"Sottunga"}},
{"type":"Feature","geometry":{"type":"Polygon","coordinates":[[[28.1761,61.7169],[28.8118,61.5358],[28.9561,61.5407],[28.6195,61.6432],[28.3707,61.9246],[28.2217,61.9376],[28.0888,61.8853],[28.1761,61.7169]]]},"properties":{"mncplty":"Sulkava"}},
{"type":"Feature","geometry":{"type":"Polygon","coordinates":[[[20.0251,60.2186],[20.2422,60.1995],[20.2041,60.314],[20.024,60.2306],[20.0251,60.2186]]]},"properties":{"mncplty":"Sund"}},
{"type":"Feature","geometry":{"type":"Polygon","coordinates":[[[29.4595,64.5663],[29.6223,64.6354],[29.9894,64.5876],[30.0865,64.774],[29.7396,64.7898],[29.6152,64.9175],[29.627,65.0606],[29.8969,65.1051],[29.8857,65.2063],[29.6018,65.2599],[29.7547,65.4974],[29.2132,65.5185],[28.6469,65.3893],[28.6086,65.2867],[28.1624,65.2503],[27.9956,65.2212],[28.1985,65.2047],[28.2943,64.8984],[29.4595,64.5663]]]},"properties":{"mncplty":"Suomussalmi"}},
{"type":"Feature","geometry":{"type":"Polygon","coordinates":[[[26.9089,62.8499],[26.8421,62.8046],[26.8795,62.4855],[27.4085,62.5039],[27.4825,62.7058],[27.012,62.7561],[26.9089,62.8499]]]},"properties":{"mncplty":"Suonenjoki"}},
{"type":"Feature","geometry":{"type":"Polygon","coordinates":[[[25.8075,61.3134],[26.173,61.3929],[25.87,61.4785],[25.9619,61.5426],[25.7712,61.6851],[25.5013,61.6769],[25.4374,61.4869],[25.5452,61.3292],[25.8075,61.3134]]]},"properties":{"mncplty":"Sysmä"}},
{"type":"Feature","geometry":{"type":"Polygon","coordinates":[[[22.2636,60.9269],[22.5862,60.9388],[22.7015,60.9869],[22.4803,61.1706],[22.1762,61.2519],[22.2636,60.9269]]]},"properties":{"mncplty":"Säkylä"}},
{"type":"Feature","geometry":{"type":"Polygon","coordinates":[[[28.3979,61.2847],[28.2522,61.3797],[27.9312,61.3504],[27.7842,61.1637],[27.9911,61.0615],[28.3312,61.1294],[28.3979,61.2847]]]},"properties":{"mncplty":"Taipalsaari"}},
{"type":"Feature","geometry":{"type":"Polygon","coordinates":[[[28.5132,65.8462],[27.7611,65.8273],[27.777,65.5074],[28.1624,65.2503],[28.6086,65.2867],[28.6469,65.3893],[29.2132,65.5185],[28.9319,65.6467],[28.6668,65.6213],[28.5132,65.8462]]]},"properties":{"mncplty":"Taivalkoski"}},
{"type":"Feature","geometry":{"type":"Polygon","coordinates":[[[21.5887,60.6213],[21.4353,60.6233],[21.6004,60.505],[21.7227,60.594],[21.5887,60.6213]]]},"properties":{"mncplty":"Taivassalo"}},
{"type":"Feature","geometry":{"type":"Polygon","coordinates":[[[23.5505,60.7889],[23.5021,60.744],[23.9005,60.6498],[23.9713,60.6382],[24.0467,60.6423],[24.0632,60.7935],[23.8566,60.9715],[23.8394,60.9397],[23.5505,60.7889]]]},"properties":{"mncplty":"Tammela"}},
{"type":"Feature","geometry":{"type":"Polygon","coordinates":[[[24.1185,61.6272],[24.0908,61.7928],[23.8555,61.8366],[23.7632,61.5399],[23.5423,61.5333],[23.6131,61.4778],[23.7411,61.4322],[23.8902,61.4274],[24.1185,61.6272]]]},"properties":{"mncplty":"Tampere"}},
{"type":"Feature","geometry":{"type":"Polygon","coordinates":[[[26.5436,62.9988],[26.6672,62.8492],[26.8421,62.8046],[26.9089,62.8499],[26.8955,62.989],[27.1256,63.0055],[26.9566,63.1177],[26.6068,63.0421],[26.5436,62.9988]]]},"properties":{"mncplty":"Tervo"}},
{"type":"Feature","geometry":{"type":"Polygon","coordinates":[[[25.2257,65.9615],[25.5449,66.1162],[25.7639,66.089],[26.0673,66.1591],[24.7918,66.3322],[24.4941,66.1858],[24.5096,66.0304],[25.2257,65.9615]]]},"properties":{"mncplty":"Tervola"}},
{"type":"Feature","geometry":{"type":"Polygon","coordinates":[[[21.8756,62.3619],[22.0415,62.5414],[22.0996,62.6054],[21.6622,62.64],[21.5541,62.4243],[21.8756,62.3619]]]},"properties":{"mncplty":"Teuva"}},
{"type":"Feature","geometry":{"type":"Polygon","coordinates":[[[29.9496,62.3703],[30.0051,62.2443],[30.4831,62.0638],[30.7892,62.2508],[30.57,62.3726],[29.9496,62.3703]]]},"properties":{"mncplty":"Tohmajärvi"}},
{"type":"Feature","geometry":{"type":"Polygon","coordinates":[[[23.9852,63.7563],[24.4085,63.566],[24.6187,63.6509],[24.2475,63.8769],[23.9852,63.7563]]]},"properties":{"mncplty":"Toholampi"}},
{"type":"Feature","geometry":{"type":"Polygon","coordinates":[[[26.3317,62.0368],[26.3159,62.2005],[26.0486,62.1813],[25.9609,62.0747],[25.7952,62.0944],[25.768,62.0636],[25.9514,61.9975],[26.3317,62.0368]]]},"properties":{"mncplty":"Toivakka"}},
{"type":"Feature","geometry":{"type":"Polygon","coordinates":[[[24.5096,66.0304],[24.4941,66.1858],[24.7918,66.3322],[23.8919,66.1677],[24.1294,65.7785],[24.4362,65.7672],[24.5096,66.0304]]]},"properties":{"mncplty":"Tornio"}},
{"type":"Feature","geometry":{"type":"Polygon","coordinates":[[[22.415,60.7373],[22.2459,60.505],[22.1078,60.4479],[22.1051,60.4396],[22.3063,60.3675],[22.3653,60.4783],[22.4457,60.6409],[22.415,60.7373]]]},"properties":{"mncplty":"Turku"}},
{"type":"Feature","geometry":{"type":"Polygon","coordinates":[[[28.6551,62.657],[28.7444,62.8124],[28.3859,62.9639],[28.1667,62.8765],[28.3608,62.6124],[28.467,62.5832],[28.6551,62.657]]]},"properties":{"mncplty":"Tuusniemi"}},
{"type":"Feature","geometry":{"type":"Polygon","coordinates":[[[24.9122,60.5556],[24.8689,60.4013],[25.056,60.3759],[25.1768,60.4411],[25.1807,60.4609],[25.0445,60.4476],[25.1281,60.5285],[25.0453,60.5769],[24.9122,60.5556]]]},"properties":{"mncplty":"Tuusula"}},
{"type":"Feature","geometry":{"type":"Polygon","coordinates":[[[25.5553,64.8489],[25.5011,64.7069],[25.7258,64.5826],[25.7559,64.6623],[26.0751,64.5816],[25.9981,64.677],[25.7505,64.889],[25.7283,64.9045],[25.5553,64.8489]]]},"properties":{"mncplty":"Tyrnävä"}},
{"type":"Feature","geometry":{"type":"Polygon","coordinates":[[[22.205,61.4074],[22.4342,61.4889],[22.0971,61.5733],[21.8037,61.3851],[22.1661,61.4055],[22.205,61.4074]]]},"properties":{"mncplty":"Ulvila"}},
{"type":"Feature","geometry":{"type":"Polygon","coordinates":[[[23.5421,61.2053],[23.2793,61.2383],[23.2729,61.2211],[23.26,61.0186],[23.4741,60.9635],[23.7123,61.009],[23.8394,60.9397],[23.8566,60.9715],[23.7568,61.0574],[23.5421,61.2053]]]},"properties":{"mncplty":"Urjala"}},
{"type":"Feature","geometry":{"type":"Polygon","coordinates":[[[26.4616,64.5651],[27.1481,64.8353],[27.4026,64.8552],[27.3299,65.0907],[26.6286,65.097],[26.7684,64.9528],[26.3943,64.8444],[26.1833,64.8179],[26.4616,64.5651]]]},"properties":{"mncplty":"Utajärvi"}},
{"type":"Feature","geometry":{"type":"Polygon","coordinates":[[[28.3305,69.8492],[27.9594,70.0921],[27.0418,69.9108],[26.4716,69.9405],[25.8919,69.6648],[25.7384,69.1476],[27.8868,69.5653],[28.3305,69.8492]]]},"properties":{"mncplty":"Utsjoki"}},
{"type":"Feature","geometry":{"type":"Polygon","coordinates":[[[25.5791,62.4287],[25.6952,62.4915],[25.4839,62.5471],[25.2519,62.5377],[25.1248,62.427],[25.2854,62.3892],[25.5791,62.4287]]]},"properties":{"mncplty":"Uurainen"}},
{"type":"Feature","geometry":{"type":"Polygon","coordinates":[[[21.5055,60.8835],[21.4123,60.9459],[21.2797,61.0018],[21.2031,60.9213],[21.4353,60.6233],[21.5887,60.6213],[21.5587,60.74],[21.732,60.7593],[21.5055,60.8835]]]},"properties":{"mncplty":"Uusikaupunki"}},
{"type":"Feature","geometry":{"type":"Polygon","coordinates":[[[27.1878,64.3103],[27.397,64.5719],[27.1481,64.8353],[26.4616,64.5651],[26.2911,64.4791],[26.7675,64.2652],[27.1878,64.3103]]]},"properties":{"mncplty":"Vaala"}},
{"type":"Feature","geometry":{"type":"MultiPolygon","coordinates":[[[[22.2423,63.0637],[22.0507,63.137],[21.9121,63.0488],[22.144,62.9631],[22.2423,63.0637]]],[[[21.5177,63.171],[21.4421,63.013],[21.5631,62.9848],[21.8289,63.0617],[21.5177,63.171]]]]},"properties":{"mncplty":"Vaasa"}},
{"type":"Feature","geometry":{"type":"Polygon","coordinates":[[[23.9583,61.1019],[24.2355,61.1514],[24.3024,61.2332],[24.0791,61.3305],[23.9578,61.3313],[23.8114,61.2307],[23.9583,61.1019]]]},"properties":{"mncplty":"Valkeakoski"}},
{"type":"Feature","geometry":{"type":"Polygon","coordinates":[[[24.8314,60.2541],[25.1902,60.2857],[25.1728,60.3566],[25.056,60.3759],[24.8689,60.4013],[24.7493,60.3418],[24.8314,60.2541]]]},"properties":{"mncplty":"Vantaa"}},
{"type":"Feature","geometry":{"type":"Polygon","coordinates":[[[28.6528,62.2313],[28.315,62.3546],[28.0317,62.2955],[27.758,62.3674],[28.0489,62.2353],[28.3891,62.2144],[28.5975,62.1496],[28.6528,62.2313]]]},"properties":{"mncplty":"Varkaus"}},
{"type":"Feature","geometry":{"type":"Polygon","coordinates":[[[21.732,60.7593],[21.5587,60.74],[21.5887,60.6213],[21.7227,60.594],[21.7831,60.6146],[21.7988,60.7385],[21.732,60.7593]]]},"properties":{"mncplty":"Vehmaa"}},
{"type":"Feature","geometry":{"type":"Polygon","coordinates":[[[26.3343,63.0351],[26.0682,62.8894],[26.1518,62.8468],[26.4466,62.7892],[26.6672,62.8492],[26.5436,62.9988],[26.3343,63.0351]]]},"properties":{"mncplty":"Vesanto"}},
{"type":"Feature","geometry":{"type":"Polygon","coordinates":[[[23.7371,61.259],[23.5483,61.3583],[23.4776,61.3968],[23.2207,61.3284],[23.2793,61.2383],[23.5421,61.2053],[23.7371,61.259]]]},"properties":{"mncplty":"Vesilahti"}},
{"type":"Feature","geometry":{"type":"Polygon","coordinates":[[[24.0408,63.5215],[23.6578,63.483],[23.697,63.3803],[23.862,63.2776],[24.052,63.2581],[24.1646,63.3319],[24.0408,63.5215]]]},"properties":{"mncplty":"Veteli"}},
{"type":"Feature","geometry":{"type":"Polygon","coordinates":[[[27.261,63.6888],[27.3576,63.8274],[27.1193,63.9908],[26.8704,64.037],[26.5594,63.9637],[26.8356,63.8154],[26.8288,63.6668],[27.0153,63.6165],[27.261,63.6888]]]},"properties":{"mncplty":"Vieremä"}},
{"type":"Feature","geometry":{"type":"Polygon","coordinates":[[[24.6277,60.3592],[24.5248,60.4768],[24.6488,60.5167],[24.5773,60.5858],[24.4237,60.5525],[24.1713,60.4847],[24.3057,60.2946],[24.3425,60.2462],[24.5156,60.2813],[24.6277,60.3592]]]},"properties":{"mncplty":"Vihti"}},
{"type":"Feature","geometry":{"type":"Polygon","coordinates":[[[25.7077,62.9207],[26.0682,62.8894],[26.3343,63.0351],[26.1419,63.2747],[25.3335,63.2843],[25.3093,63.2787],[25.3751,63.0993],[25.7077,62.9207]]]},"properties":{"mncplty":"Viitasaari"}},
{"type":"Feature","geometry":{"type":"Polygon","coordinates":[[[24.1708,63.148],[24.052,63.2581],[23.862,63.2776],[23.7156,63.1119],[24.1708,63.148]]]},"properties":{"mncplty":"Vimpeli"}},
{"type":"Feature","geometry":{"type":"Polygon","coordinates":[[[27.3979,60.5082],[27.6842,60.4928],[27.8887,60.6129],[27.4547,60.6411],[27.3979,60.5082]]]},"properties":{"mncplty":"Virolahti"}},
{"type":"Feature","geometry":{"type":"Polygon","coordinates":[[[23.3378,62.4251],[23.2178,62.3342],[23.424,62.1581],[23.6806,62.0844],[23.8554,62.1709],[24.0355,62.121],[24.2113,62.2523],[24.013,62.3633],[23.8352,62.4943],[23.6637,62.4086],[23.3378,62.4251]]]},"properties":{"mncplty":"Virrat"}},
{"type":"Feature","geometry":{"type":"Polygon","coordinates":[[[20.3952,60.1983],[20.4056,60.3044],[20.334,60.257],[20.3952,60.1983]]]},"properties":{"mncplty":"Vårdö"}},
{"type":"Feature","geometry":{"type":"Polygon","coordinates":[[[22.6317,63.1019],[22.6166,63.282],[22.3635,63.3458],[22.2174,63.2495],[21.9585,63.2627],[22.0507,63.137],[22.2423,63.0637],[22.6317,63.1019]]]},"properties":{"mncplty":"Vörå"}},
{"type":"Feature","geometry":{"type":"Polygon","coordinates":[[[23.7971,66.5211],[23.6498,66.3104],[23.8919,66.1677],[24.7918,66.3322],[25.0504,66.4758],[24.9881,66.7544],[24.7396,66.7536],[24.1859,66.5125],[23.7971,66.5211]]]},"properties":{"mncplty":"Ylitornio"}},
{"type":"Feature","geometry":{"type":"Polygon","coordinates":[[[24.3463,64.0415],[24.3066,64.0221],[24.6391,63.9468],[25.0212,64.0679],[24.9064,64.1095],[24.5821,64.1865],[24.3463,64.0415]]]},"properties":{"mncplty":"Ylivieska"}},
{"type":"Feature","geometry":{"type":"Polygon","coordinates":[[[23.4422,61.5722],[23.5423,61.5333],[23.7632,61.5399],[23.8555,61.8366],[23.6806,62.0844],[23.424,62.1581],[23.2952,62.0829],[23.3108,61.9495],[23.5939,61.8194],[23.2103,61.7344],[23.3354,61.6371],[23.5005,61.6979],[23.4422,61.5722]]]},"properties":{"mncplty":"Ylöjärvi"}},
{"type":"Feature","geometry":{"type":"Polygon","coordinates":[[[23.2667,60.8891],[23.1546,60.7742],[23.4086,60.7398],[23.2763,60.8822],[23.2667,60.8891]]]},"properties":{"mncplty":"Ypäjä"}},
{"type":"Feature","geometry":{"type":"Polygon","coordinates":[[[23.9316,62.7509],[23.9936,62.5791],[23.8352,62.4943],[24.013,62.3633],[24.5306,62.5284],[24.5822,62.6648],[24.5196,62.686],[24.0395,62.7365],[23.9316,62.7509]]]},"properties":{"mncplty":"Ähtäri"}},
{"type":"Feature","geometry":{"type":"Polygon","coordinates":[[[25.5711,62.8593],[25.6966,62.7824],[25.4921,62.7261],[25.4839,62.5471],[25.6952,62.4915],[26.036,62.5836],[26.2338,62.6784],[26.0248,62.8254],[26.1518,62.8468],[26.0682,62.8894],[25.7077,62.9207],[25.5711,62.8593]]]},"properties":{"mncplty":"Äänekoski"}}
]}